id,label,type,primaryCategory,allCategories,country,city,nodeDescription,startDate,endDate,latitude,longitude,SIC,url
49860E,Kherson Oil Refinery(Ukraine),Company,Mining,Mining;,Ukraine,,,,,49.4871968,31.2718321,1311,
98682M,Yonca-Onuk Savunma Sanayii AS,Company,Manufacturing,Wholesale Trade;Manufacturing;,Turkey,"Tuzla, Istanbul",,,,40.8166668,29.3008332,3731,
44624R,IOCOI,Company,Mining,Mining;Mining;Mining;,Iraq,,,,,33.0955793,44.1749775,1311,
29677V,Esseco Srl,Company,Manufacturing,Manufacturing;Wholesale Trade;Manufacturing;Manufacturing;,Italy,San Martino Trecate,,,,45.4477272,8.7910372,2819,
9044ZW,Undisclosed Turkish Bottler,Company,Manufacturing,Manufacturing;,Turkey,,,,,38.9597594,34.9249653,3221,
90631Q,Ukratomprom,Company,"Transportation, Communications, Electric, Gas, And Sanitary Services","Transportation, Communications, Electric, Gas, And Sanitary Services;",Ukraine,,,,,49.4871968,31.2718321,4911,
14773N,Caspian Shipping Co,Company,"Transportation, Communications, Electric, Gas, And Sanitary Services","Transportation, Communications, Electric, Gas, And Sanitary Services;",Azerbaijan,Baku,,,,40.3754289,49.8328549,4412,
26846T,EGPC,Company,Mining,Mining;,Egypt,,,1995-06-26,,26.2540493,29.2675469,1311,
98566Z,OGK-5,Company,"Transportation, Communications, Electric, Gas, And Sanitary Services","Transportation, Communications, Electric, Gas, And Sanitary Services;",Russian Fed,Yekaterinburg,,2006-09-25,,56.8391034,60.6082502,4911,
81692V,SEL SpA,Company,"Transportation, Communications, Electric, Gas, And Sanitary Services","Transportation, Communications, Electric, Gas, And Sanitary Services;Transportation, Communications, Electric, Gas, And Sanitary Services;Transportation, Communications, Electric, Gas, And Sanitary Services;Transportation, Communications, Electric, Gas, And Sanitary Services;",Italy,Bolzano,,2010-06-02,,46.4981125,11.3547801,4911,
75061N,Raga Engineering,Company,Manufacturing,Manufacturing;,Italy,,,,,42.6384261,12.674297,3491,
65472H,Nizhni Novgorod Port,Company,"Transportation, Communications, Electric, Gas, And Sanitary Services","Transportation, Communications, Electric, Gas, And Sanitary Services;",Russian Fed,,,,,64.6863136,97.7453061,4412,
12394A,Cairo & Alexandria Stock,Company,"Finance, Insurance, And Real Estate","Finance, Insurance, And Real Estate;",Egypt,Cairo,,,,30.0488185,31.2436663,6211,
83520T,Sofinter SpA,Company,"Transportation, Communications, Electric, Gas, And Sanitary Services","Transportation, Communications, Electric, Gas, And Sanitary Services;",Italy,Gallarate,,,,45.6601574,8.7936705,4911,
88771C,TenizService LLP,Company,Mining,Mining;Mining;Mining;,Kazakhstan,Aktau,,,,43.6432697,51.1707631,1311,
9047TF,Undisclosed Italian Energy,Company,"Transportation, Communications, Electric, Gas, And Sanitary Services","Transportation, Communications, Electric, Gas, And Sanitary Services;",Italy,,,2000-08-02,,42.6384261,12.674297,4911,
46627I,ASZ,Company,Manufacturing,Manufacturing;,Russian Fed,Komsomolsk-Na-Amure,,,,50.5508776,137.0207752,3731,
90615L,Ukrhazvydobuvannia,Company,Mining,Mining;Mining;Mining;,Ukraine,Kyiv,,,,50.4501071,30.5240501,1311,
52605U,Oktyabr,Company,Manufacturing,Manufacturing;Manufacturing;Manufacturing;,Russian Fed,Lenigrad,,,,59.93301,30.3472446,2819,
75611M,Societa Rete Gas Italia,Company,"Transportation, Communications, Electric, Gas, And Sanitary Services","Transportation, Communications, Electric, Gas, And Sanitary Services;Transportation, Communications, Electric, Gas, And Sanitary Services;Transportation, Communications, Electric, Gas, And Sanitary Services;Transportation, Communications, Electric, Gas, And Sanitary Services;",Italy,,,1993-01-21,,42.6384261,12.674297,4923,
35781M,E ON Elektrik Uretim Ltd Sti,Company,"Transportation, Communications, Electric, Gas, And Sanitary Services","Transportation, Communications, Electric, Gas, And Sanitary Services;",Turkey,,,,,38.9597594,34.9249653,4911,
3A3588,Errenergia Srl,Company,"Transportation, Communications, Electric, Gas, And Sanitary Services","Transportation, Communications, Electric, Gas, And Sanitary Services;Transportation, Communications, Electric, Gas, And Sanitary Services;",Italy,Rome,,2010-06-08,,41.8935085,12.4825526,4911,
77611J,Romeo Shipping Group,Company,"Transportation, Communications, Electric, Gas, And Sanitary Services","Transportation, Communications, Electric, Gas, And Sanitary Services;",Italy,,,,,42.6384261,12.674297,4412,
12593Q,CPL Concordia Soc Coop,Company,"Transportation, Communications, Electric, Gas, And Sanitary Services","Transportation, Communications, Electric, Gas, And Sanitary Services;Transportation, Communications, Electric, Gas, And Sanitary Services;Transportation, Communications, Electric, Gas, And Sanitary Services;Transportation, Communications, Electric, Gas, And Sanitary Services;Transportation, Communications, Electric, Gas, And Sanitary Services;Public Administration;",Italy,Concordia Sulla Secchia,,,,44.913174,10.983297,4911,
27855Z,Plinacro doo,Company,"Transportation, Communications, Electric, Gas, And Sanitary Services","Transportation, Communications, Electric, Gas, And Sanitary Services;Transportation, Communications, Electric, Gas, And Sanitary Services;Transportation, Communications, Electric, Gas, And Sanitary Services;",Croatia,Zagreb,,,,45.8131545,15.9770298,4923,
44333T,HEP,Company,"Transportation, Communications, Electric, Gas, And Sanitary Services","Transportation, Communications, Electric, Gas, And Sanitary Services;Transportation, Communications, Electric, Gas, And Sanitary Services;",Croatia,Zagreb,,,,45.8131545,15.9770298,4911,
61950N,Moskovskiy NPZ,Company,Mining,Mining;,Russian Fed,Moscow,,,,55.7516335,37.6187042,1311,
37294H,Geologorazvedka,Company,Mining,Mining;,Russian Fed,,,,,64.6863136,97.7453061,1382,
77820V,Rosuglesbyt,Company,Mining,Mining;,Russian Fed,,,,,64.6863136,97.7453061,1311,
85235N,Stadtwerke Eisenerz GmbH,Company,"Transportation, Communications, Electric, Gas, And Sanitary Services","Transportation, Communications, Electric, Gas, And Sanitary Services;",Austria,,,1992-12-09,,47.2000338,13.199959,4911,
71655T,PetroAlliance Services Co Ltd,Company,Mining,Mining;Mining;Mining;,Russian Fed,Moscow,,,,55.7516335,37.6187042,1311,
88824H,Tiszamenti Vegyi Muvek,Company,Manufacturing,Manufacturing;Manufacturing;Manufacturing;,Hungary,,,1993-07-27,,47.1817585,19.5060937,2819,
04124K,Arkhangelskeftegaz,Company,Mining,Mining;,Russian Fed,,,,,64.6863136,97.7453061,1311,
67240W,TRINFICO Property Management,Company,"Finance, Insurance, And Real Estate","Finance, Insurance, And Real Estate;Finance, Insurance, And Real Estate;",Russian Fed,Moscow,,,,55.7516335,37.6187042,6211,
38659Z,Grandi Lavori Fincosit SPA,Company,Services,Services;,Italy,Rome,,,,41.8935085,12.4825526,8711,
12024W,Bulgarian River Shipping JS Co,Company,"Transportation, Communications, Electric, Gas, And Sanitary Services","Transportation, Communications, Electric, Gas, And Sanitary Services;",Bulgaria,Russe,,,,43.8480413,25.9542057,4412,
29187Q,EN+ Group Ltd,Company,"Transportation, Communications, Electric, Gas, And Sanitary Services","Transportation, Communications, Electric, Gas, And Sanitary Services;Finance, Insurance, And Real Estate;Finance, Insurance, And Real Estate;Transportation, Communications, Electric, Gas, And Sanitary Services;Manufacturing;",Russian Fed,Moscow,,,,55.7516335,37.6187042,4911,
98873F,Yuzhkazgeologia,Company,Mining,Mining;,Kazakhstan,,,1994-06-28,,47.2286086,65.2093197,1311,
89326Z,Trans-Nafta,Company,Mining,Mining;,Russian Fed,Moscow,,2000-10-03,,55.7516335,37.6187042,1311,
91237Q,TransAtlantic Turkey Ltd,Company,Mining,Mining;Mining;Mining;,Turkey,Ankara,,,,39.9220794,32.853758,1311,
07877A,Belleli SpA,Company,Services,Services;,Italy,Mantova(MN),,,,45.1566683,10.7917191,8711,
07877F,Belleli Energy Srl,Company,Manufacturing,Manufacturing;Manufacturing;,Italy,Mantova,,,,45.1566683,10.7917191,3443,
90013W,Turkiye Petrolleri AO,Company,Mining,Mining;Mining;Mining;,Turkey,Ankara,,1992-11-30,,39.9220794,32.853758,1311,
78137W,Rumeli Elektrik Yatirim AS,Company,"Transportation, Communications, Electric, Gas, And Sanitary Services","Transportation, Communications, Electric, Gas, And Sanitary Services;",Turkey,,,1993-02-28,,38.9597594,34.9249653,4911,
64010R,Neftechimmash Engineering,Company,Services,Services;,Russian Fed,,,,,64.6863136,97.7453061,8711,
76694A,Rimera,Company,Construction,Construction;Services;,Russian Fed,Moscow,,,,55.7516335,37.6187042,1623,
28505H,SC Electrica SA,Company,"Transportation, Communications, Electric, Gas, And Sanitary Services","Transportation, Communications, Electric, Gas, And Sanitary Services;",Romania,Bucharest,,,,44.4361414,26.1027443,4911,
45822B,GK Integra,Company,Mining,Services;Manufacturing;Mining;Mining;Mining;,Russian Fed,Moscow,,,,55.7516335,37.6187042,1381,
92229V,Varyeganneftegaz(Sidanko),Company,Mining,Mining;,Russian Fed,,,,,64.6863136,97.7453061,1311,
69827L,Panda Shipping Ltd,Company,"Transportation, Communications, Electric, Gas, And Sanitary Services","Transportation, Communications, Electric, Gas, And Sanitary Services;",Turkey,,,,,38.9597594,34.9249653,4412,
28617G,ETI,Company,"Transportation, Communications, Electric, Gas, And Sanitary Services","Transportation, Communications, Electric, Gas, And Sanitary Services;",Slovakia,Sokolov,,,,48.595408,21.5929957,4911,
69594L,PACC Electronic Engineering,Company,Services,Services;,Egypt,Cairo,,,,30.0488185,31.2436663,8711,
69636F,Palestinian Energy Authority,Company,"Transportation, Communications, Electric, Gas, And Sanitary Services","Transportation, Communications, Electric, Gas, And Sanitary Services;",Israel,,,,,30.8760272,35.0015196,4911,
1E5237,Sevastopol Marine Trade Port,Company,"Transportation, Communications, Electric, Gas, And Sanitary Services","Transportation, Communications, Electric, Gas, And Sanitary Services;",Russian Fed,Sevastopol.,,,,44.5547288,33.4720239,4412,
84849L,SPIGA NORD SpA,Company,Manufacturing,Manufacturing;Manufacturing;,Italy,Genoa,,,,44.40726,8.9338624,2819,
12650J,CTS Chemicals Industries Ltd,Company,Manufacturing,Manufacturing;,Israel,Kiryat Malachi,,,,31.7314672,34.74348,2819,
77619L,Rompetrol SA,Company,Mining,Mining;Mining;Mining;,Romania,Bucharest,,,,44.4361414,26.1027443,1311,
83494Z,SEABO SpA(Italy),Company,"Transportation, Communications, Electric, Gas, And Sanitary Services","Transportation, Communications, Electric, Gas, And Sanitary Services;Transportation, Communications, Electric, Gas, And Sanitary Services;Transportation, Communications, Electric, Gas, And Sanitary Services;Transportation, Communications, Electric, Gas, And Sanitary Services;Transportation, Communications, Electric, Gas, And Sanitary Services;Transportation, Communications, Electric, Gas, And Sanitary Services;Transportation, Communications, Electric, Gas, And Sanitary Services;Transportation, Communications, Electric, Gas, And Sanitary Services;",Italy,Bologna,,,,44.4936714,11.3430347,4939,
86882F,Surgutneftegaz,Company,Mining,Mining;Mining;Mining;,Russian Fed,Surgut,,1994-04-01,,61.2540328,73.3963985,1311,
91898R,VCC Holding,Company,"Transportation, Communications, Electric, Gas, And Sanitary Services","Transportation, Communications, Electric, Gas, And Sanitary Services;",Italy,,,,,42.6384261,12.674297,4911,
76676Q,Rina Industry Srl,Company,Services,Services;,Italy,Genova,,,,44.40726,8.9338624,8711,
36938W,Elject,Company,Services,Construction;Services;,Egypt,Cairo,,2007-12-03,,30.0488185,31.2436663,8711,
83714W,SEL SpA,Company,"Transportation, Communications, Electric, Gas, And Sanitary Services","Transportation, Communications, Electric, Gas, And Sanitary Services;Transportation, Communications, Electric, Gas, And Sanitary Services;Transportation, Communications, Electric, Gas, And Sanitary Services;Transportation, Communications, Electric, Gas, And Sanitary Services;",Italy,Bolzano,,,,46.4981125,11.3547801,4911,
92870E,Volkskreditbank,Company,"Finance, Insurance, And Real Estate","Finance, Insurance, And Real Estate;",Austria,,,,,47.2000338,13.199959,6211,
12383H,CIT Finance Investment Bank,Company,"Finance, Insurance, And Real Estate","Finance, Insurance, And Real Estate;Finance, Insurance, And Real Estate;",Russian Fed,Moscow,,,,55.7516335,37.6187042,6211,
24549F,Delmagyarorszagi Aramszolgalta,Company,"Transportation, Communications, Electric, Gas, And Sanitary Services","Transportation, Communications, Electric, Gas, And Sanitary Services;",Hungary,Szeged,,,,46.2546312,20.1486016,4911,
46532A,Italian Vento Power Corp,Company,"Transportation, Communications, Electric, Gas, And Sanitary Services","Transportation, Communications, Electric, Gas, And Sanitary Services;",Italy,,,,,42.6384261,12.674297,4911,
83874J,South Gas Co,Company,Mining,Mining;Mining;Mining;,Iraq,Basrah,,,,30.409916,47.778867,1311,
49850T,Laes-Rekonstruktsiya,Company,"Transportation, Communications, Electric, Gas, And Sanitary Services","Transportation, Communications, Electric, Gas, And Sanitary Services;",Russian Fed,St. Petersburg,,,,59.9393657,30.3153628,4911,
6A0550,Alte Enerji AS,Company,"Transportation, Communications, Electric, Gas, And Sanitary Services","Transportation, Communications, Electric, Gas, And Sanitary Services;",Turkey,Istanbul,,,,41.0096334,28.9651646,4911,
68228M,Onassis Group,Company,Mining,"Transportation, Communications, Electric, Gas, And Sanitary Services;Mining;Finance, Insurance, And Real Estate;",Greece,,,1999-02-12,,39.000041,21.9999569,1311,
79382M,Sakhalin Energy Investment Co,Company,"Transportation, Communications, Electric, Gas, And Sanitary Services","Transportation, Communications, Electric, Gas, And Sanitary Services;",Russian Fed,,,,,64.6863136,97.7453061,4911,
86388X,Studio Albertini,Company,"Finance, Insurance, And Real Estate","Finance, Insurance, And Real Estate;",Italy,Milan,,,,45.4667971,9.1904984,6211,
67236N,Holding MRSK,Company,"Transportation, Communications, Electric, Gas, And Sanitary Services","Transportation, Communications, Electric, Gas, And Sanitary Services;Finance, Insurance, And Real Estate;",Russian Fed,Moscow,,,,55.7516335,37.6187042,4911,
65821H,NIPIgazpererabotka,Company,Mining,Mining;,Russian Fed,Krasnodar,,,,45.0354329,38.9757116,1382,
01962K,Alke Construction Ind Trade In,Company,Services,Construction;Construction;Construction;Construction;Construction;Services;Services;,Turkey,Istanbul,,,,41.0096334,28.9651646,8711,
0C6092,Energean Oil & Gas SA,Company,Mining,Mining;Mining;Mining;,Greece,Athens,,,,37.9841493,23.7279843,1311,
20430Z,CIR SpA,Company,"Transportation, Communications, Electric, Gas, And Sanitary Services","Transportation, Communications, Electric, Gas, And Sanitary Services;Manufacturing;Manufacturing;Manufacturing;Manufacturing;Transportation, Communications, Electric, Gas, And Sanitary Services;Manufacturing;Services;Finance, Insurance, And Real Estate;Transportation, Communications, Electric, Gas, And Sanitary Services;Manufacturing;Finance, Insurance, And Real Estate;",Italy,Milan,,,,45.4667971,9.1904984,4911,
05490G,Azienda Energetica Municipale,Company,"Transportation, Communications, Electric, Gas, And Sanitary Services","Transportation, Communications, Electric, Gas, And Sanitary Services;",Italy,Milan,,,,45.4667971,9.1904984,4911,
82942K,Siofoki Gazipari Konzorcium,Company,"Transportation, Communications, Electric, Gas, And Sanitary Services","Transportation, Communications, Electric, Gas, And Sanitary Services;",Hungary,,,,,47.1817585,19.5060937,4931,
20081Y,Complexul Energetic Craiova SA,Company,"Transportation, Communications, Electric, Gas, And Sanitary Services","Transportation, Communications, Electric, Gas, And Sanitary Services;",Romania,"Craiova, Dolj",,,,44.3190159,23.7965614,4911,
2A6695,SANORS,Company,Manufacturing,Manufacturing;Manufacturing;Manufacturing;Manufacturing;,Russian Fed,Novokuybyshevsk,,,,53.0992438,49.9483631,2819,
16412A,Chepos Co,Company,Services,Services;,Czech Republic,,,,,49.8167003,15.4749544,8711,
98908N,ZanGas,Company,Mining,Mining;Mining;Mining;,Russian Fed,Moscow,,,,55.7516335,37.6187042,1311,
78666N,Sadid Industrial Group,Company,Services,"Services;Finance, Insurance, And Real Estate;Finance, Insurance, And Real Estate;",Iran,Tehran,,,,35.686172,51.4223519,8711,
50294L,Kuvvat,Company,"Transportation, Communications, Electric, Gas, And Sanitary Services","Transportation, Communications, Electric, Gas, And Sanitary Services;",Turkmenistan,,,,,39.3763807,59.3924609,4911,
77843T,Bank Rossiyskiy kredit,Company,"Finance, Insurance, And Real Estate","Finance, Insurance, And Real Estate;",Russian Fed,Moscow,,,,55.7516335,37.6187042,6211,
67057Q,Nuovo Pignone,Company,Manufacturing,Manufacturing;Manufacturing;,Italy,Firenze,,,,43.7698712,11.2555757,3824,
99286K,Al Meinaa Oil Services Ltd,Company,Mining,Mining;,Iraq,,,,,33.0955793,44.1749775,1382,
09224A,ChSZ,Company,Manufacturing,Manufacturing;Manufacturing;,Ukraine,Mikolaiv,,,,46.9713414,32.0042394,3731,
04687C,Athena SA,Company,Services,Construction;Construction;Construction;Construction;Construction;Services;,Greece,Marousi,,,,38.04557465,23.8052716342941,8711,
05437V,Azot(MDM Bank),Company,Manufacturing,Manufacturing;Manufacturing;,Russian Fed,Novomoskovsk,,,,54.0110136,38.2909423,2819,
48340V,Kaliningradmorneftegaz,Company,Mining,Mining;,Russian Fed,,,1995-04-25,,64.6863136,97.7453061,1311,
02031X,Almaz,Company,Manufacturing,Manufacturing;Manufacturing;,Russian Fed,St Petersburg,,,,59.9393657,30.3153628,3731,
02231R,Alusuisse Italia,Company,Manufacturing,Manufacturing;Manufacturing;Manufacturing;Manufacturing;Manufacturing;,Italy,20124 Milano,,,,45.4667971,9.1904984,2819,
28102E,Edison International SpA,Company,Mining,Mining;Mining;Mining;,Italy,,,,,42.6384261,12.674297,1311,
28264I,Ekoplast-CSFR(Czechoslovakia),Company,"Transportation, Communications, Electric, Gas, And Sanitary Services","Transportation, Communications, Electric, Gas, And Sanitary Services;",Czech Republic,,,,,49.8167003,15.4749544,4931,
28264X,Ekotrans Moravia(CZ),Company,Manufacturing,Manufacturing;,Czech Republic,,,1991-03-11,,49.8167003,15.4749544,3731,
786362,SAES Getters SpA,Company,Manufacturing,Wholesale Trade;Manufacturing;Manufacturing;Manufacturing;Manufacturing;,Italy,Milan,,,,45.4667971,9.1904984,3823,
83032X,Sintezkauchuk,Company,Mining,"Mining;Transportation, Communications, Electric, Gas, And Sanitary Services;Finance, Insurance, And Real Estate;",Russian Fed,,,,,64.6863136,97.7453061,1311,
59104F,Metall Co,Company,Manufacturing,Manufacturing;,Russian Fed,,,,,64.6863136,97.7453061,3533,
40834F,Magyar Villamos Muvek Zrt,Company,"Transportation, Communications, Electric, Gas, And Sanitary Services","Transportation, Communications, Electric, Gas, And Sanitary Services;",Hungary,Budapest,,,,47.4983815,19.0404707,4911,
02284Q,Amal Oilfield,Company,Mining,Mining;,Egypt,,,,,26.2540493,29.2675469,1311,
62941Z,NTT KORO,Company,Services,Services;,Ukraine,,,,,49.4871968,31.2718321,8711,
05931C,Banca IMI,Company,"Finance, Insurance, And Real Estate","Finance, Insurance, And Real Estate;Services;Finance, Insurance, And Real Estate;Finance, Insurance, And Real Estate;",Italy,Milan,,,,45.4667971,9.1904984,6211,
05931F,Banca Profilo SpA,Company,"Finance, Insurance, And Real Estate","Finance, Insurance, And Real Estate;Finance, Insurance, And Real Estate;",Italy,Milan,,,,45.4667971,9.1904984,6211,
43367T,Hlubna,Company,Manufacturing,Manufacturing;Manufacturing;,Czech Republic,Moravia,,,,49.2201995,16.5189757,2819,
68756J,Ortner Ges mbH,Company,Services,Construction;Services;Construction;Services;Construction;,Austria,Innsbruck,,,,47.2654296,11.3927685,8711,
48664M,RD KMG,Company,Mining,Mining;Mining;Mining;,Kazakhstan,Astana,,2013-03-04,,51.15092055,71.4388595154859,1311,
73878Y,Primorsky Oil & Gas,Company,Mining,Mining;Mining;Mining;,Russian Fed,,,,,64.6863136,97.7453061,1311,
46503Q,Israel Chemicals Ltd,Company,Manufacturing,Manufacturing;Manufacturing;Manufacturing;,Israel,Ramat Gan,,,,32.0724892,34.824244,2819,
00879P,ACSM SpA,Company,"Transportation, Communications, Electric, Gas, And Sanitary Services","Transportation, Communications, Electric, Gas, And Sanitary Services;Transportation, Communications, Electric, Gas, And Sanitary Services;Transportation, Communications, Electric, Gas, And Sanitary Services;Transportation, Communications, Electric, Gas, And Sanitary Services;Transportation, Communications, Electric, Gas, And Sanitary Services;Transportation, Communications, Electric, Gas, And Sanitary Services;",Italy,Como,,,,45.8106805,9.0863028,4911,
60849A,Moldovagaz(Moldova),Company,"Transportation, Communications, Electric, Gas, And Sanitary Services","Transportation, Communications, Electric, Gas, And Sanitary Services;",Moldova,,,1995-05-15,,47.286747,28.5110236,4922,
44709M,Inter RAO EES,Company,"Transportation, Communications, Electric, Gas, And Sanitary Services","Transportation, Communications, Electric, Gas, And Sanitary Services;",Russian Fed,Moscow,,,,55.7516335,37.6187042,4911,
29021R,Elsag-Finmeccanica,Company,"Transportation, Communications, Electric, Gas, And Sanitary Services","Transportation, Communications, Electric, Gas, And Sanitary Services;Transportation, Communications, Electric, Gas, And Sanitary Services;",Italy,,,1999-02-02,,42.6384261,12.674297,4931,
3A9628,Ukrtranshaz,Company,Mining,Mining;Mining;Mining;,Ukraine,Kyiv,,,,50.4501071,30.5240501,1311,
74492E,Private Wealth Mgmt SGR SpA,Company,"Finance, Insurance, And Real Estate","Finance, Insurance, And Real Estate;Finance, Insurance, And Real Estate;",Italy,Milan,,,,45.4667971,9.1904984,6211,
28624J,Eletson Holdings Inc,Company,Mining,Mining;,Greece,Piraeus,,,,37.9440078,23.6483599,1311,
Petronas_node,PETRONAS,Company,Mining,Mining;Mining;Mining;,Malaysia,Kuala Lumpur,,1991-06-07,,3.1387103,101.682099528432,1311,
46401H,Intermobiliare Securities SIM,Company,"Finance, Insurance, And Real Estate","Finance, Insurance, And Real Estate;",Italy,,,,,42.6384261,12.674297,6211,
04973E,Attica Enterprises SA,Company,"Transportation, Communications, Electric, Gas, And Sanitary Services","Transportation, Communications, Electric, Gas, And Sanitary Services;",Greece,Voula,,,,37.8482826,23.7718112582108,4412,
04973K,Attiki SA,Company,"Transportation, Communications, Electric, Gas, And Sanitary Services","Transportation, Communications, Electric, Gas, And Sanitary Services;",Greece,,,,,39.000041,21.9999569,4922,
76048W,Republic of Ingushetia,Company,Mining,Mining;,Russian Fed,,,,,64.6863136,97.7453061,1311,
44968F,IMI Capital Markets,Company,"Finance, Insurance, And Real Estate","Finance, Insurance, And Real Estate;",Italy,,,,,42.6384261,12.674297,6211,
90014T,Turkish Oil,Company,Mining,Mining;,Turkey,,,,,38.9597594,34.9249653,1311,
12561Z,CKD Hradec Kralove(CZ),Company,Services,Services;,Czech Republic,East Bohemian,,,,,,8711,
2C4352,Uzman Enerji Yatirimlari,Company,"Transportation, Communications, Electric, Gas, And Sanitary Services","Transportation, Communications, Electric, Gas, And Sanitary Services;",Turkey,,,,,38.9597594,34.9249653,4911,
29295Y,Energoinvest Sarajevo,Company,Services,Services;,Czech Republic,,,1997-04-04,,49.8167003,15.4749544,8711,
50057F,Kondpetroleum Oil Prd(Sidanko),Company,Mining,Mining;,Russian Fed,,,,,64.6863136,97.7453061,1311,
M75253,Orbotech Ltd,Company,Manufacturing,Wholesale Trade;Manufacturing;Manufacturing;Services;,Israel,Yavne,,,,31.8761804,34.7380919,3823,
04366V,ASEA Brown Boveri(Iraq),Company,Services,Services;Construction;,Iraq,,,,,33.0955793,44.1749775,8711,
73854J,Quest Energy SA,Company,"Transportation, Communications, Electric, Gas, And Sanitary Services","Transportation, Communications, Electric, Gas, And Sanitary Services;",Greece,,,,,39.000041,21.9999569,4911,
37638R,Giris Gomma,Company,Manufacturing,Manufacturing;,Italy,,,,,42.6384261,12.674297,2819,
22677J,Croatian Oil Company,Company,"Transportation, Communications, Electric, Gas, And Sanitary Services","Transportation, Communications, Electric, Gas, And Sanitary Services;",Croatia,,,1998-10-22,,45.5643442,17.0118954,4925,
75074F,Raiffeisen Investment AG,Company,"Finance, Insurance, And Real Estate","Finance, Insurance, And Real Estate;",Austria,Vienna,,2004-08-16,,48.2083537,16.3725042,6211,
98540A,ANK Bashneft,Company,Mining,Mining;Mining;Mining;,Russian Fed,Ufa,,2011-12-28,,54.7262869,55.9477285,1311,
83904J,Southern Oil Co,Company,Mining,Mining;Mining;Mining;,Iraq,Basrah,,,,30.409916,47.778867,1311,
59168H,Metran,Company,Manufacturing,Manufacturing;,Russian Fed,,,,,64.6863136,97.7453061,3824,
59608N,Middlebrook,Company,"Transportation, Communications, Electric, Gas, And Sanitary Services","Transportation, Communications, Electric, Gas, And Sanitary Services;",Greece,,,,,39.000041,21.9999569,4412,
78711Y,Saipem SpA,Company,Mining,Mining;Mining;Construction;Services;Mining;Mining;,Italy,San Donato Milanese,,2002-02-06,,45.41807,9.27165,1382,
91818L,Uzvneshneftegas,Company,Mining,Mining;,Uzbekistan,,,,,41.32373,63.9528098,1311,
G9108L,Tsakos Energy Navigation Ltd,Company,"Transportation, Communications, Electric, Gas, And Sanitary Services","Transportation, Communications, Electric, Gas, And Sanitary Services;",Greece,Athens,,2013-12-12,,37.9841493,23.7279843,4412,
GAZPMN,Gazprom,Company,Mining,"Manufacturing;Mining;Mining;Mining;Finance, Insurance, And Real Estate;",Russian Fed,Moscow,,1991-06-20,,55.7516335,37.6187042,1311,
9A7180,Pansoinco SRL,Company,Mining,Services;Mining;Mining;Mining;,Italy,Milan,,,,45.4667971,9.1904984,1311,
20008Y,Comau SpA(Comau Finanziaria),Company,Manufacturing,Manufacturing;,Italy,"Grugliasco, Torino",,,,45.068046,7.57762,3569,
03171K,Amoco Caspian Sea Petroleum Co,Company,Mining,Mining;,Azerbaijan,Baku,,1998-07-21,,40.3754289,49.8328549,1311,
78310V,Russian Engineering Institute,Company,Services,Services;,Russian Fed,,,,,64.6863136,97.7453061,8711,
42550X,Henkel Austria GmbH,Company,Manufacturing,Manufacturing;Manufacturing;Wholesale Trade;Manufacturing;Manufacturing;Manufacturing;Manufacturing;,Austria,"Wien, Wien",,,,48.2083537,16.3725042,2819,
57128N,Turcas Enerji Holding AS,Company,"Transportation, Communications, Electric, Gas, And Sanitary Services","Transportation, Communications, Electric, Gas, And Sanitary Services;",Turkey,"Besiktas, Istanbul",,,,41.0716178,29.0305381519225,4911,
75770M,Rollechin Impianti,Company,Manufacturing,Manufacturing;Manufacturing;,Italy,,,,,42.6384261,12.674297,2819,
01667N,All-Russian Scientific Inst,Company,Services,Services;,Russian Fed,,,,,64.6863136,97.7453061,8711,
63199Z,Naeem Holding Co for Invest,Company,"Finance, Insurance, And Real Estate","Finance, Insurance, And Real Estate;Finance, Insurance, And Real Estate;Finance, Insurance, And Real Estate;",Egypt,Giza,,,,30.0170059,31.2134513,6211,
98592R,Zahidukrgeologica,Company,Mining,Mining;,Ukraine,,,,,49.4871968,31.2718321,1311,
06772P,Barnaul Radiozavod,Company,"Transportation, Communications, Electric, Gas, And Sanitary Services","Transportation, Communications, Electric, Gas, And Sanitary Services;Transportation, Communications, Electric, Gas, And Sanitary Services;Transportation, Communications, Electric, Gas, And Sanitary Services;",Russian Fed,Barnaul,,,,53.3473762,83.7784101,4931,
91958Y,Uzbekistan State Hldg Oil,Company,Mining,Mining;Mining;Mining;Mining;,Uzbekistan,,,,,41.32373,63.9528098,1389,
71424W,Permneft,Company,Mining,Mining;,Russian Fed,,,1993-08-18,,64.6863136,97.7453061,1311,
31742P,Fincantieri SpA,Company,Manufacturing,"Manufacturing;Transportation, Communications, Electric, Gas, And Sanitary Services;Transportation, Communications, Electric, Gas, And Sanitary Services;",Italy,Trieste,,,,45.6500335,13.7706559,3731,
91818F,Uzneftegazdobycha,Company,Mining,Mining;,Uzbekistan,,,,,41.32373,63.9528098,1311,
88995Y,Toros Tarim Sanayi ve Ticaret,Company,Manufacturing,Manufacturing;Manufacturing;Wholesale Trade;Manufacturing;,Turkey,Istanbul,,,,41.0096334,28.9651646,2819,
45942F,International Egyptian Oil,Company,Mining,Mining;Mining;Mining;,Egypt,Cairo,,,,30.0488185,31.2436663,1311,
28234A,Egyptian Gen Petro Corp,Company,Mining,"Mining;Mining;Mining;Finance, Insurance, And Real Estate;",Egypt,Cairo,,1993-02-23,,30.0488185,31.2436663,1311,
89151C,Total Mineraria SpA(TOTAL),Company,Mining,Mining;,Italy,,,,,42.6384261,12.674297,1311,
27885C,Ecofuel SpA,Company,Manufacturing,Manufacturing;,Italy,,,,,42.6384261,12.674297,2819,
01221X,ASM SpA,Company,"Transportation, Communications, Electric, Gas, And Sanitary Services","Construction;Transportation, Communications, Electric, Gas, And Sanitary Services;Transportation, Communications, Electric, Gas, And Sanitary Services;Transportation, Communications, Electric, Gas, And Sanitary Services;Transportation, Communications, Electric, Gas, And Sanitary Services;Transportation, Communications, Electric, Gas, And Sanitary Services;Transportation, Communications, Electric, Gas, And Sanitary Services;Transportation, Communications, Electric, Gas, And Sanitary Services;Transportation, Communications, Electric, Gas, And Sanitary Services;Public Administration;Transportation, Communications, Electric, Gas, And Sanitary Services;Transportation, Communications, Electric, Gas, And Sanitary Services;",Italy,Brescia,,,,45.5399392,10.2204897,4911,
15713I,Ceskoslovenska Plavba Dunajska,Company,"Transportation, Communications, Electric, Gas, And Sanitary Services","Transportation, Communications, Electric, Gas, And Sanitary Services;Transportation, Communications, Electric, Gas, And Sanitary Services;",Slovakia,Bratislava,,1991-04-15,,48.1359085,17.1597440625,4412,
15713J,Ceske Energeticke-Power Plant,Company,"Transportation, Communications, Electric, Gas, And Sanitary Services","Transportation, Communications, Electric, Gas, And Sanitary Services;",Czech Republic,Melnick,,,,,,4911,
47116P,Jaslovske Bohnunice,Company,"Transportation, Communications, Electric, Gas, And Sanitary Services","Transportation, Communications, Electric, Gas, And Sanitary Services;",Czech Republic,Slovak Republic,,,,48.1409425,17.1070131810529,4911,
48669L,Kazakh Oil Co,Company,Mining,Mining;,Kazakhstan,,,,,47.2286086,65.2093197,1311,
48669J,Kazakhstan State Oil Co,Company,Mining,Mining;,Kazakhstan,,,,,47.2286086,65.2093197,1311,
50074L,Koraboimpex,Company,"Transportation, Communications, Electric, Gas, And Sanitary Services","Transportation, Communications, Electric, Gas, And Sanitary Services;",Bulgaria,,,,,42.6073975,25.4856617,4412,
00310K,AEM Torino SpA,Company,"Transportation, Communications, Electric, Gas, And Sanitary Services","Transportation, Communications, Electric, Gas, And Sanitary Services;Transportation, Communications, Electric, Gas, And Sanitary Services;Transportation, Communications, Electric, Gas, And Sanitary Services;Transportation, Communications, Electric, Gas, And Sanitary Services;",Italy,Turin,,,,45.0709201,7.685972,4911,
45909N,Inrob Ltd,Company,Services,Services;,Israel,Yavne,,,,31.8761804,34.7380919,8711,
44605C,Intreprinderea de Masini Grele,Company,"Transportation, Communications, Electric, Gas, And Sanitary Services","Transportation, Communications, Electric, Gas, And Sanitary Services;",Romania,,,,,45.9852129,24.6859225,4911,
83668K,So Gas Service Srl,Company,"Transportation, Communications, Electric, Gas, And Sanitary Services","Transportation, Communications, Electric, Gas, And Sanitary Services;Transportation, Communications, Electric, Gas, And Sanitary Services;",Italy,,,,,42.6384261,12.674297,4924,
84607P,Spazio Energia SrL,Company,"Transportation, Communications, Electric, Gas, And Sanitary Services","Transportation, Communications, Electric, Gas, And Sanitary Services;",Italy,Rivotorto Di Assisi,,2006-07-06,,43.0443848,12.6181987,4911,
29233W,Energetika e Plinstal,Company,"Transportation, Communications, Electric, Gas, And Sanitary Services","Transportation, Communications, Electric, Gas, And Sanitary Services;",Slovenia,Prebold,,1993-03-12,,46.2358001,15.0922149,4925,
49995A,OAO Krasnodarneftegaz,Company,Mining,Mining;Mining;Mining;,Russian Fed,,,,,64.6863136,97.7453061,1311,
52719H,Lesvos Maritime Co,Company,"Transportation, Communications, Electric, Gas, And Sanitary Services","Transportation, Communications, Electric, Gas, And Sanitary Services;",Greece,Mytilini,,,,39.1061204,26.5538342,4412,
40235W,Guide Geoscience Technologies,Company,Mining,Mining;Mining;Manufacturing;,Egypt,Cairo,,,,30.0488185,31.2436663,1382,
44030Q,IOEC Inc(Agip SpA),Company,Mining,Mining;,Italy,,,1994-11-30,,42.6384261,12.674297,1311,
71673Y,Petromin SA,Company,"Transportation, Communications, Electric, Gas, And Sanitary Services","Transportation, Communications, Electric, Gas, And Sanitary Services;",Romania,,,1993-06-21,,45.9852129,24.6859225,4412,
83638C,SNN,Company,"Transportation, Communications, Electric, Gas, And Sanitary Services","Transportation, Communications, Electric, Gas, And Sanitary Services;Transportation, Communications, Electric, Gas, And Sanitary Services;Transportation, Communications, Electric, Gas, And Sanitary Services;",Romania,Bucharest,,,,44.4361414,26.1027443,4911,
90370E,Ukranafta,Company,"Finance, Insurance, And Real Estate","Finance, Insurance, And Real Estate;",Ukraine,,,,,49.4871968,31.2718321,6792,
90370W,Ukrnafta,Company,Mining,Mining;Mining;Mining;,Ukraine,Kyiv,,2007-07-12,,50.4501071,30.5240501,1311,
86468B,"Suez Petroleum Co Ltd,1 Other",Company,Mining,Mining;,Egypt,,,,,26.2540493,29.2675469,1311,
45257E,Immorent AG,Company,"Finance, Insurance, And Real Estate","Finance, Insurance, And Real Estate;",Austria,Wien,,,,48.2083537,16.3725042,6211,
68161Y,Olympic Consortium,Company,Mining,Mining;,Greece,,,,,39.000041,21.9999569,1311,
88168E,Texaco Exploration North Egypt,Company,Mining,Mining;,Egypt,,,1992-02-06,,26.2540493,29.2675469,1311,
13975P,Capitalia SpA,Company,"Finance, Insurance, And Real Estate","Finance, Insurance, And Real Estate;Finance, Insurance, And Real Estate;Finance, Insurance, And Real Estate;Finance, Insurance, And Real Estate;",Italy,Rome,,,,41.8935085,12.4825526,6211,
99014X,TsS Zvezdochka,Company,Manufacturing,Manufacturing;,Russian Fed,Severodvinsk,,,,64.5633236,39.8243248,3731,
09068M,Gruppo BIPOP,Company,"Finance, Insurance, And Real Estate","Finance, Insurance, And Real Estate;",Italy,,,,,42.6384261,12.674297,6211,
56043A,Maire Tecnimont SpA,Company,Services,"Services;Mining;Finance, Insurance, And Real Estate;",Italy,Roma,,,,41.8935085,12.4825526,8711,
30018E,Evergreen Capital Markets Ltd,Company,"Finance, Insurance, And Real Estate","Finance, Insurance, And Real Estate;",Israel,Tel Aviv,,,,32.0804808,34.7805274,6211,
89941W,Tulpar Munai Ltd,Company,Mining,Mining;Mining;,Kazakhstan,,,1995-04-17,,47.2286086,65.2093197,1311,
13036H,Calik Enerji Sanayi ve Ticaret,Company,Mining,Mining;Mining;Mining;,Turkey,Ankara,,2006-10-31,,39.9220794,32.853758,1311,
61531K,Monument Resources Caspian Ltd,Company,Mining,Mining;,Azerbaijan,,,1998-07-21,,40.3936294,47.7872508,1311,
55308E,MMTK International Transport,Company,"Transportation, Communications, Electric, Gas, And Sanitary Services","Transportation, Communications, Electric, Gas, And Sanitary Services;",Turkey,Kazakhstan,,1993-10-01,,,,4412,
3A0288,RES Anatolia Holding AS,Company,"Transportation, Communications, Electric, Gas, And Sanitary Services","Transportation, Communications, Electric, Gas, And Sanitary Services;Transportation, Communications, Electric, Gas, And Sanitary Services;Transportation, Communications, Electric, Gas, And Sanitary Services;",Turkey,Istanbul,,,,41.0096334,28.9651646,4911,
90351L,Uganskneftegas,Company,Mining,Mining;,Russian Fed,,,,,64.6863136,97.7453061,1311,
24871A,DeNora,Company,Manufacturing,Manufacturing;,Italy,Milan,,,,45.4667971,9.1904984,2819,
70346T,Atomstroiexport JSC,Company,"Transportation, Communications, Electric, Gas, And Sanitary Services","Transportation, Communications, Electric, Gas, And Sanitary Services;",Russian Fed,Moscow,,2007-05-28,,55.7516335,37.6187042,4911,
73162Z,Poltava Gasprom,Company,Mining,Mining;,Ukraine,,,1995-01-18,,49.4871968,31.2718321,1311,
73162Y,Poltavaneftegasgeologia,Company,Mining,Mining;,Ukraine,,,1995-01-18,,49.4871968,31.2718321,1311,
73162F,Poltavskaya Gas and Oil Co,Company,Mining,Mining;,Ukraine,,,,,49.4871968,31.2718321,1311,
78633M,Sadra,Company,Manufacturing,Manufacturing;,Iran,,,,,32.9407496,52.9471344,3731,
46514Q,Isramco Negev,Company,Mining,Mining;,Israel,,,1990-09-11,,30.8760272,35.0015196,1311,
00583W,AEM Cremona SpA,Company,"Transportation, Communications, Electric, Gas, And Sanitary Services","Transportation, Communications, Electric, Gas, And Sanitary Services;Transportation, Communications, Electric, Gas, And Sanitary Services;Transportation, Communications, Electric, Gas, And Sanitary Services;Transportation, Communications, Electric, Gas, And Sanitary Services;Transportation, Communications, Electric, Gas, And Sanitary Services;",Italy,Cremona,,2006-07-28,,45.1346168,10.0251103,4911,
12018Y,Bulgargas(Bulgaria),Company,"Transportation, Communications, Electric, Gas, And Sanitary Services","Transportation, Communications, Electric, Gas, And Sanitary Services;Transportation, Communications, Electric, Gas, And Sanitary Services;",Bulgaria,,,1995-05-19,,42.6073975,25.4856617,4922,
09985R,Bormioli Rocco SpA,Company,Manufacturing,Manufacturing;Manufacturing;Manufacturing;Wholesale Trade;Manufacturing;Manufacturing;,Italy,Fidenza,,,,44.8639701,10.0666684,3221,
05477J,Azerigas,Company,"Transportation, Communications, Electric, Gas, And Sanitary Services","Transportation, Communications, Electric, Gas, And Sanitary Services;Transportation, Communications, Electric, Gas, And Sanitary Services;",Azerbaijan,,,1994-06-12,,40.3936294,47.7872508,4922,
45533Z,Industrial Scientific Centre,Company,Mining,Mining;Mining;Mining;,Russian Fed,,,,,64.6863136,97.7453061,1311,
05847R,Balkanneft,Company,Mining,Mining;,Turkmenistan,,,,,39.3763807,59.3924609,1311,
24810V,Demiroren Group,Company,Mining,Mining;Mining;,Turkey,,,,,38.9597594,34.9249653,1311,
80408V,SAT,Company,"Transportation, Communications, Electric, Gas, And Sanitary Services","Transportation, Communications, Electric, Gas, And Sanitary Services;Transportation, Communications, Electric, Gas, And Sanitary Services;Transportation, Communications, Electric, Gas, And Sanitary Services;",Italy,Sassuolo (Mo),,,,44.5409769,10.7829023,4924,
30733R,DVMP,Company,"Transportation, Communications, Electric, Gas, And Sanitary Services","Transportation, Communications, Electric, Gas, And Sanitary Services;Transportation, Communications, Electric, Gas, And Sanitary Services;",Russian Fed,Vladivostok,,,,43.1150678,131.8855768,4412,
28242F,EGAS,Company,Mining,"Transportation, Communications, Electric, Gas, And Sanitary Services;Mining;Transportation, Communications, Electric, Gas, And Sanitary Services;Transportation, Communications, Electric, Gas, And Sanitary Services;Mining;Mining;Mining;",Egypt,Cairo,,2001-11-12,,30.0488185,31.2436663,1311,
87795F,Tecsol Scrl,Company,Services,Services;Services;,Italy,Ravenna,,,,44.4161414,12.2017617,8711,
99170R,ZAO Grand-Express,Company,Mining,Mining;Mining;Mining;,Russian Fed,,,,,64.6863136,97.7453061,1311,
79592Q,Samarneftegaz,Company,Mining,Mining;,Russian Fed,,,,,64.6863136,97.7453061,1311,
56268K,MangistauMunaiGaz,Company,Mining,Mining;,Kazakhstan,,,,,47.2286086,65.2093197,1311,
56268H,Mangistaumunaigas Production,Company,Mining,Mining;,Kazakhstan,,,,,47.2286086,65.2093197,1311,
61634Q,Moplefan SpA,Company,Manufacturing,Manufacturing;Manufacturing;Manufacturing;,Italy,,,,,42.6384261,12.674297,2819,
0C2121,Rezhwan Co,Company,Mining,Mining;Mining;Mining;,Iraq,Kurdistan,,,,35.450909,44.410333,1311,
12334K,Butan Gas SpA,Company,"Transportation, Communications, Electric, Gas, And Sanitary Services","Wholesale Trade;Transportation, Communications, Electric, Gas, And Sanitary Services;Transportation, Communications, Electric, Gas, And Sanitary Services;",Italy,"Milano, Milano",,,,45.4667971,9.1904984,4925,
23933Q,Enisud,Company,Mining,Mining;,Italy,,,,,42.6384261,12.674297,1311,
28621A,Elektron dd(Croatia),Company,"Transportation, Communications, Electric, Gas, And Sanitary Services","Transportation, Communications, Electric, Gas, And Sanitary Services;",Croatia,,,,,45.5643442,17.0118954,4911,
0A0001,Basra Intl Oil & Gas Hub,Company,Mining,Mining;Mining;Mining;,Iraq,Basra,,,,30.4952367,47.8090981,1381,
Fluxys_node,Fluxys SA,Company,"Transportation, Communications, Electric, Gas, And Sanitary Services","Transportation, Communications, Electric, Gas, And Sanitary Services;Transportation, Communications, Electric, Gas, And Sanitary Services;Transportation, Communications, Electric, Gas, And Sanitary Services;",Belgium,Brussels,,,,50.8465565,4.351697,4922,
11221F,Bromide Group(Israel Chems),Company,Manufacturing,Manufacturing;Manufacturing;,Israel,,,,,30.8760272,35.0015196,2819,
59041C,Merty Enerji Petrol Arama,Company,Mining,Mining;Mining;Mining;,Turkey,Gaziosmanpasa,,,,41.0734206,28.9015811536258,1311,
4A3596,DESFA,Company,"Transportation, Communications, Electric, Gas, And Sanitary Services","Transportation, Communications, Electric, Gas, And Sanitary Services;Transportation, Communications, Electric, Gas, And Sanitary Services;Transportation, Communications, Electric, Gas, And Sanitary Services;Transportation, Communications, Electric, Gas, And Sanitary Services;",Greece,Halandri,,,,,,4922,
83388J,Italgas SpA,Company,"Transportation, Communications, Electric, Gas, And Sanitary Services","Transportation, Communications, Electric, Gas, And Sanitary Services;Transportation, Communications, Electric, Gas, And Sanitary Services;Transportation, Communications, Electric, Gas, And Sanitary Services;",Italy,Torino,,1998-02-13,,45.0709201,7.685972,4922,
80373L,Sarlis Container Services,Company,"Transportation, Communications, Electric, Gas, And Sanitary Services","Transportation, Communications, Electric, Gas, And Sanitary Services;Transportation, Communications, Electric, Gas, And Sanitary Services;Transportation, Communications, Electric, Gas, And Sanitary Services;",Greece,Piraeus,,,,37.9440078,23.6483599,4412,
89094N,Transmashholding Bombardier,Company,Services,Services;Manufacturing;Services;,Russian Fed,Moscow,,,,55.7516335,37.6187042,8711,
99054Q,Zarit,Company,Mining,Mining;Mining;Mining;,Turkmenistan,,,,,39.3763807,59.3924609,1311,
55446E,Mapna Group,Company,"Transportation, Communications, Electric, Gas, And Sanitary Services","Transportation, Communications, Electric, Gas, And Sanitary Services;",Iran,Tehran,,,,35.686172,51.4223519,4911,
20825F,Conoco Timon-Pechora Ltd,Company,Mining,Manufacturing;Mining;,Russian Fed,,,1992-06-18,,64.6863136,97.7453061,1311,
04756A,Atilla Dogan,Company,Mining,Mining;,Turkey,,,1994-02-15,,38.9597594,34.9249653,1311,
88224K,TGK-2,Company,"Transportation, Communications, Electric, Gas, And Sanitary Services","Transportation, Communications, Electric, Gas, And Sanitary Services;",Russian Fed,Yaroslavl,,,,57.6263877,39.8933705,4911,
46876N,IPR Energy Red Sea Inc,Company,Mining,Mining;Mining;Mining;,Egypt,Cairo,,,,30.0488185,31.2436663,1311,
7A5129,Alkim Alkali Kimya AS,Company,Manufacturing,Manufacturing;Manufacturing;Manufacturing;Manufacturing;,Turkey,Istanbul,,,,41.0096334,28.9651646,2819,
67449W,Obukhov Engineering Works,Company,Manufacturing,Manufacturing;Manufacturing;,Russian Fed,St Petersburg,,,,59.9393657,30.3153628,3533,
50122C,Kuibyshevneft(Russia),Company,Mining,Public Administration;Mining;,Russian Fed,,,1994-07-18,,64.6863136,97.7453061,1311,
46286L,Iran Group of Surveyors,Company,Services,Services;,Iran,Tehran,,,,35.686172,51.4223519,8711,
75843H,Renaissance Capital,Company,"Finance, Insurance, And Real Estate","Finance, Insurance, And Real Estate;Finance, Insurance, And Real Estate;",Russian Fed,Moscow,,,,55.7516335,37.6187042,6211,
82256P,Shell Development Sakhalin,Company,Mining,Mining;,Russian Fed,Sakhalin,,,,50.15947595,143.026504575,1311,
Statoil_node,Statoil ASA,Company,Mining,Wholesale Trade;Mining;Mining;Mining;,Norway,Stavanger,,2008-02-21,,58.9680427,5.7324722,1311,
48671Q,KazMorTransFlot CJSC,Company,"Transportation, Communications, Electric, Gas, And Sanitary Services","Transportation, Communications, Electric, Gas, And Sanitary Services;Transportation, Communications, Electric, Gas, And Sanitary Services;",Kazakhstan,Almaty,,,,43.21984255,76.9183518874968,4412,
04122Y,Arkhangelskgeoldobycha,Company,Mining,Mining;Mining;Mining;,Russian Fed,Arkhangelsk,,,,64.5430227,40.5371212,1311,
28090Z,Edison SpA,Company,"Transportation, Communications, Electric, Gas, And Sanitary Services","Transportation, Communications, Electric, Gas, And Sanitary Services;Manufacturing;Mining;Transportation, Communications, Electric, Gas, And Sanitary Services;Transportation, Communications, Electric, Gas, And Sanitary Services;Transportation, Communications, Electric, Gas, And Sanitary Services;Mining;Mining;Mining;",Italy,Milan,,2008-01-24,,45.4667971,9.1904984,4911,
46265M,Iran Marine Industrial Co,Company,Manufacturing,Manufacturing;,Iran,Tehran,,,,35.686172,51.4223519,3731,
46265Z,Iranian Shipping Line,Company,"Transportation, Communications, Electric, Gas, And Sanitary Services","Transportation, Communications, Electric, Gas, And Sanitary Services;",Iran,,,,,32.9407496,52.9471344,4412,
67643Y,Iranian Offshore Engineering &,Company,Services,Services;,Iran,Tehran,,,,35.686172,51.4223519,8711,
35167A,Fram Shipping Ltd,Company,"Transportation, Communications, Electric, Gas, And Sanitary Services","Transportation, Communications, Electric, Gas, And Sanitary Services;",Ukraine,,,1992-10-22,,49.4871968,31.2718321,4412,
46639Z,Vyborg Shipyard JSC,Company,Manufacturing,Manufacturing;Manufacturing;,Russian Fed,Vyborg,,2008-07-22,,60.7092159,28.7440507,3731,
46025P,International Oil Corp,Company,Mining,Mining;Mining;Mining;,Georgia,,,,,32.3293809,-83.1137365,1311,
98841A,YuganskOil,Company,Mining,Mining;,Russian Fed,,,,,64.6863136,97.7453061,1382,
65497P,Nobel Oil,Company,Mining,Mining;,Russian Fed,,,1998-12-08,,64.6863136,97.7453061,1311,
88034J,Tengizmunaygaz(Kazkhstan),Company,Mining,Mining;,Kazakhstan,,,,,47.2286086,65.2093197,1311,
80693T,Schlumberger Logelco Inc,Company,Mining,Mining;Mining;Mining;,Kazakhstan,Atyrau,,,,47.105003,51.9235947,1311,
29138E,Emmedi,Company,Manufacturing,Manufacturing;Manufacturing;,Italy,,,,,42.6384261,12.674297,2819,
76696J,Rinnovabili Srl,Company,"Transportation, Communications, Electric, Gas, And Sanitary Services","Transportation, Communications, Electric, Gas, And Sanitary Services;",Italy,,,,,42.6384261,12.674297,4911,
46947F,Iraq Drilling Co,Company,Mining,Mining;Mining;Mining;,Iraq,Baghdad,,,,33.3024248,44.3787992,1311,
22730W,CROSCO Naftni Servisi doo,Company,Mining,Mining;Mining;,Croatia,Zagreb,,,,45.8131545,15.9770298,1381,
91531H,Upetrom SA(Romania),Company,Manufacturing,Manufacturing;Mining;Mining;Mining;,Romania,Ploiesti,,1994-04-26,,44.9417468,26.0236504,3533,
29563F,Energia Futura SrL,Company,"Transportation, Communications, Electric, Gas, And Sanitary Services","Transportation, Communications, Electric, Gas, And Sanitary Services;",Italy,,,,,42.6384261,12.674297,4911,
47489K,Kompaniya SIAM,Company,Mining,"Finance, Insurance, And Real Estate;",Russian Fed,Tomsk,,,,56.4887123,84.9523238,1382,
77773N,Rosenergoatom,Company,"Transportation, Communications, Electric, Gas, And Sanitary Services","Transportation, Communications, Electric, Gas, And Sanitary Services;",Russian Fed,Moscow,,1994-07-29,,55.7516335,37.6187042,4911,
87740A,Turcas Elektrik Uretim AS,Company,"Transportation, Communications, Electric, Gas, And Sanitary Services","Transportation, Communications, Electric, Gas, And Sanitary Services;",Turkey,,,,,38.9597594,34.9249653,4911,
20170Z,CI Capital Holding Co SAE,Company,"Finance, Insurance, And Real Estate","Finance, Insurance, And Real Estate;Finance, Insurance, And Real Estate;Finance, Insurance, And Real Estate;Finance, Insurance, And Real Estate;Finance, Insurance, And Real Estate;",Egypt,Giza,,,,30.0170059,31.2134513,6211,
36135N,GADOT YAM,Company,"Transportation, Communications, Electric, Gas, And Sanitary Services","Transportation, Communications, Electric, Gas, And Sanitary Services;Transportation, Communications, Electric, Gas, And Sanitary Services;Transportation, Communications, Electric, Gas, And Sanitary Services;",Israel,,,,,30.8760272,35.0015196,4412,
12116H,BEGAS Energie AG,Company,"Transportation, Communications, Electric, Gas, And Sanitary Services","Transportation, Communications, Electric, Gas, And Sanitary Services;Transportation, Communications, Electric, Gas, And Sanitary Services;",Austria,Eisenstadt,,,,47.84621,16.5237586,4922,
67787A,Oil Exploration of Paz Ltd,Company,Mining,Mining;,Israel,,,1990-09-11,,30.8760272,35.0015196,1311,
01544K,Alexopoulos Power Development,Company,"Transportation, Communications, Electric, Gas, And Sanitary Services","Transportation, Communications, Electric, Gas, And Sanitary Services;",Greece,,,,,39.000041,21.9999569,4911,
67787W,OIEC,Company,Services,Services;Construction;,Iran,Tehran,,,,35.686172,51.4223519,8711,
40394C,HC Securities & Investment SAE,Company,"Finance, Insurance, And Real Estate","Finance, Insurance, And Real Estate;Finance, Insurance, And Real Estate;Finance, Insurance, And Real Estate;Finance, Insurance, And Real Estate;Finance, Insurance, And Real Estate;",Egypt,Giza,,,,30.0170059,31.2134513,6211,
91797W,Uzpec Ltd,Company,"Transportation, Communications, Electric, Gas, And Sanitary Services","Transportation, Communications, Electric, Gas, And Sanitary Services;Transportation, Communications, Electric, Gas, And Sanitary Services;Transportation, Communications, Electric, Gas, And Sanitary Services;Transportation, Communications, Electric, Gas, And Sanitary Services;",Uzbekistan,,,,,41.32373,63.9528098,4922,
00358M,ASM Pavia SpA,Company,"Transportation, Communications, Electric, Gas, And Sanitary Services","Transportation, Communications, Electric, Gas, And Sanitary Services;Transportation, Communications, Electric, Gas, And Sanitary Services;Transportation, Communications, Electric, Gas, And Sanitary Services;",Italy,Pavia,,2006-07-28,,45.1860043,9.1546375,4924,
98953E,Zihni Shipping Group,Company,"Transportation, Communications, Electric, Gas, And Sanitary Services","Transportation, Communications, Electric, Gas, And Sanitary Services;",Turkey,Kazakhstan,,1993-10-01,,,,4412,
92306H,Vegas Oil & Gas SA,Company,Mining,Mining;Mining;Mining;,Greece,Maroussi,,,,38.04557465,23.8052716342941,1311,
36820Z,Genel Enerji AS,Company,Mining,Mining;Mining;Mining;,Turkey,Ankara,,,,39.9220794,32.853758,1311,
British_Petroleum_node,British Petroleum Co PLC,Company,Mining,"Manufacturing;Mining;Mining;Mining;Wholesale Trade;Manufacturing;Transportation, Communications, Electric, Gas, And Sanitary Services;Manufacturing;Manufacturing;Mining;Finance, Insurance, And Real Estate;Manufacturing;Mining;",United Kingdom,London,,1991-06-07,,51.5073219,-0.1276473,1382,
89012L,Tomskneft VNK,Company,Mining,Mining;Mining;Mining;,Russian Fed,,,,,64.6863136,97.7453061,1311,
66947P,OOO Sinopetro,Company,Mining,Mining;Mining;Mining;,Russian Fed,,,,,64.6863136,97.7453061,1311,
79380T,Saknaftoproducti(Georgia),Company,Mining,Mining;,Georgia,,,,,32.3293809,-83.1137365,1311,
98849F,Yukosneftegaz,Company,Mining,Mining;,Russian Fed,,,1993-11-29,,64.6863136,97.7453061,1311,
04388Y,Ascopiave SpA,Company,"Transportation, Communications, Electric, Gas, And Sanitary Services","Transportation, Communications, Electric, Gas, And Sanitary Services;Transportation, Communications, Electric, Gas, And Sanitary Services;Transportation, Communications, Electric, Gas, And Sanitary Services;Transportation, Communications, Electric, Gas, And Sanitary Services;",Italy,Pieve Di Soligo,,,,45.8997613,12.1730811,4924,
02142V,Alte SA,Company,Services,Services;,Greece,,,1997-02-14,,39.000041,21.9999569,8711,
77830K,Rosstroigazificatia(Russia),Company,Construction,Construction;Manufacturing;,Russian Fed,Moscow,,,,55.7516335,37.6187042,1623,
36143E,Galichina Oil Refinery,Company,Mining,Mining;,Ukraine,Lvov,,2000-03-23,,49.8419505,24.0315968,1311,
Y7169G,Quintana Maritime Ltd,Company,"Transportation, Communications, Electric, Gas, And Sanitary Services","Transportation, Communications, Electric, Gas, And Sanitary Services;Finance, Insurance, And Real Estate;",Greece,Glyfada,,,,37.8615966,23.7545902,4412,
036336,Ansaldo SpA(FINEMECCANICA/IRI),Company,Services,Services;,Italy,Genoa,,1991-06-20,,44.40726,8.9338624,8711,
70644M,Pemneft,Company,Mining,Mining;,Russian Fed,,,,,64.6863136,97.7453061,1311,
NOVATEK_node,NOVATEK,Company,Mining,Mining;Mining;Mining;,Russian Fed,Tarko-Sale,,2005-07-07,,64.9183927,77.7703583,1311,
69434M,Petrojet,Company,Services,Services;,Egypt,Cairo,,,,30.0488185,31.2436663,8711,
46511P,Israel Electric Corp,Company,"Transportation, Communications, Electric, Gas, And Sanitary Services","Transportation, Communications, Electric, Gas, And Sanitary Services;",Israel,Haifa,,,,32.8191218,34.9983856,4911,
87856E,Technigaz(Bouygues SA),Company,Mining,Mining;Mining;Mining;,Greece,,,,,39.000041,21.9999569,1311,
88131P,Tel Aviv Stock Exchange Ltd,Company,"Finance, Insurance, And Real Estate","Finance, Insurance, And Real Estate;Finance, Insurance, And Real Estate;Services;",Israel,Tel-Aviv,,,,32.0804808,34.7805274,6211,
71785J,PIDEC,Company,Services,Services;Services;Services;,Iran,Shiraz,,,,29.6096054,52.5431763,8711,
61941N,Mosregiongaz,Company,Mining,Mining;Mining;Mining;,Russian Fed,,,2008-06-27,,64.6863136,97.7453061,1311,
48666Z,NK KazMunaiGaz,Company,Mining,Mining;Mining;Mining;,Kazakhstan,Astana,,1993-03-08,,51.15092055,71.4388595154859,1311,
17040P,Chornomornaftohaz,Company,Mining,Mining;Mining;Mining;,Ukraine,Simferopol,,1998-06-05,,44.9521394,34.1024575,1311,
46190W,Investicni Banka,Company,"Finance, Insurance, And Real Estate","Finance, Insurance, And Real Estate;",Czech Republic,Praha 1,,,,50.0874654,14.4212503,6211,
83303M,Snamprogetti,Company,Mining,Mining;Mining;Mining;,Italy,San Donato Milanese (Milan),,,,45.41807,9.27165,1311,
49385X,Kiev Oktava,Company,Manufacturing,Manufacturing;Manufacturing;,Ukraine,,,,,49.4871968,31.2718321,3824,
49385I,Kyivenerho,Company,"Transportation, Communications, Electric, Gas, And Sanitary Services","Transportation, Communications, Electric, Gas, And Sanitary Services;",Ukraine,Kyiv,,1992-02-24,,50.4501071,30.5240501,4911,
49385K,Kiev Institute Enerhoproekt,Company,"Transportation, Communications, Electric, Gas, And Sanitary Services","Transportation, Communications, Electric, Gas, And Sanitary Services;",Ukraine,,,,,49.4871968,31.2718321,4911,
16414V,Chornomornaftohaz,Company,Mining,Mining;Mining;Mining;,Ukraine,Simferopol,,2005-08-03,,44.9521394,34.1024575,1311,
73140T,Polisan Kimya Sanayii AS,Company,Manufacturing,Wholesale Trade;Manufacturing;,Turkey,Gebze,,,,40.8006696,29.431767,2819,
2C8789,Snam SpA,Company,"Transportation, Communications, Electric, Gas, And Sanitary Services","Transportation, Communications, Electric, Gas, And Sanitary Services;Transportation, Communications, Electric, Gas, And Sanitary Services;Transportation, Communications, Electric, Gas, And Sanitary Services;Transportation, Communications, Electric, Gas, And Sanitary Services;",Italy,Milan,,,,45.4667971,9.1904984,4923,
79338A,St Petersburg Neftenalivnoy,Company,"Transportation, Communications, Electric, Gas, And Sanitary Services","Transportation, Communications, Electric, Gas, And Sanitary Services;",Russian Fed,St Petersburg,,1993-02-10,,59.9393657,30.3153628,4412,
91382P,Universal Shipping,Company,"Transportation, Communications, Electric, Gas, And Sanitary Services","Transportation, Communications, Electric, Gas, And Sanitary Services;",Turkey,Istanbul,,,,41.0096334,28.9651646,4412,
59025F,Merloni Progetto Energia,Company,"Transportation, Communications, Electric, Gas, And Sanitary Services","Transportation, Communications, Electric, Gas, And Sanitary Services;",Italy,Milan,,,,45.4667971,9.1904984,4911,
30277M,Fabbrica Italiana Apprchiatre,Company,Manufacturing,Manufacturing;,Italy,,,,,42.6384261,12.674297,3823,
46009L,International Oil Consortum,Company,Mining,Mining;,Czech Republic,,,,,49.8167003,15.4749544,1311,
2A3424,Gulf of Suez Petroleum Co,Company,Mining,Mining;Mining;Mining;,Egypt,Cairo,,,,30.0488185,31.2436663,1311,
01164F,Alarko Holding AS,Company,Services,"Finance, Insurance, And Real Estate;Services;Finance, Insurance, And Real Estate;Services;Finance, Insurance, And Real Estate;Services;",Turkey,Istanbul,,,,41.0096334,28.9651646,8711,
12543H,CHZ Novaky(Czechoslovakia),Company,Manufacturing,Manufacturing;Manufacturing;Manufacturing;,Czech Republic,Bratislava,,1992-01-16,,49.1686623,16.6231418,2819,
Axpo_node,Axpo Holding AG,Company,"Transportation, Communications, Electric, Gas, And Sanitary Services","Transportation, Communications, Electric, Gas, And Sanitary Services;Transportation, Communications, Electric, Gas, And Sanitary Services;Finance, Insurance, And Real Estate;",Switzerland,Zurich,,,,47.3685586,8.5404434,4911,
00537Z,AceaElectrabel SpA,Company,"Transportation, Communications, Electric, Gas, And Sanitary Services","Transportation, Communications, Electric, Gas, And Sanitary Services;Transportation, Communications, Electric, Gas, And Sanitary Services;Transportation, Communications, Electric, Gas, And Sanitary Services;Transportation, Communications, Electric, Gas, And Sanitary Services;Transportation, Communications, Electric, Gas, And Sanitary Services;Finance, Insurance, And Real Estate;",Italy,Rome,,2003-09-23,,41.8935085,12.4825526,4911,
29952Q,Eurasia Drilling Co Ltd,Company,Mining,Mining;Mining;,Russian Fed,Moscow,,,,55.7516335,37.6187042,1381,
90347Y,UCAR Carbon Italia,Company,Manufacturing,Manufacturing;,Italy,,,1991-03-04,,42.6384261,12.674297,2819,
60369H,Ministry of Engineering(UE),Company,Services,Services;,Ukraine,,,,,49.4871968,31.2718321,8711,
31564R,Fiat Impresit Sistemi,Company,Construction,Construction;Construction;,Italy,"Rivoli, Torino",,,,45.0697151,7.5176764,1623,
21852X,Cordusio,Company,Manufacturing,Manufacturing;Manufacturing;,Italy,,,1994-11-16,,42.6384261,12.674297,2819,
87659Z,Tatnefteprom,Company,Mining,Mining;Mining;Mining;,Russian Fed,"Almetyevsk, Tatarstan Republic",,1997-09-26,,,,1311,
74969M,RJSC Gasprom,Company,Mining,Mining;,Russian Fed,,,,,64.6863136,97.7453061,1311,
1C0298,Venineft LLC,Company,Mining,Manufacturing;Construction;Mining;,Russian Fed,"Sakhalinskaya Oblast,",,,,43.1338322,131.9376027,1382,
0A6550,Uzbekenergo OJSC,Company,"Transportation, Communications, Electric, Gas, And Sanitary Services","Transportation, Communications, Electric, Gas, And Sanitary Services;",Uzbekistan,Tashket City,,,,,,4911,
29304Y,Eneroreparati(Renel/Romania),Company,"Transportation, Communications, Electric, Gas, And Sanitary Services","Transportation, Communications, Electric, Gas, And Sanitary Services;",Romania,,,,,45.9852129,24.6859225,4911,
98914R,Zarubezhneft' OAO,Company,Mining,Mining;Mining;Mining;,Russian Fed,Moscow,,1995-10-06,,55.7516335,37.6187042,1311,
62661E,Murmansk Shipping Co,Company,"Transportation, Communications, Electric, Gas, And Sanitary Services","Transportation, Communications, Electric, Gas, And Sanitary Services;",Russian Fed,,,,,64.6863136,97.7453061,4412,
72421N,Piraeus Container Terminal SA,Company,"Transportation, Communications, Electric, Gas, And Sanitary Services","Transportation, Communications, Electric, Gas, And Sanitary Services;Manufacturing;Transportation, Communications, Electric, Gas, And Sanitary Services;Transportation, Communications, Electric, Gas, And Sanitary Services;Transportation, Communications, Electric, Gas, And Sanitary Services;",Greece,Perama,,,,39.6932343,20.8466667,4412,
48666E,Kazakhstan National Petroleum,Company,Mining,Mining;,Kazakhstan,,,1992-11-30,,47.2286086,65.2093197,1311,
31502G,Fermar(Ferruzzi Finanziaria),Company,"Transportation, Communications, Electric, Gas, And Sanitary Services","Transportation, Communications, Electric, Gas, And Sanitary Services;",Italy,Ravenna,,,,44.4161414,12.2017617,4412,
9A1160,CW Enerji Ticaret ve Sanayi,Company,"Transportation, Communications, Electric, Gas, And Sanitary Services","Transportation, Communications, Electric, Gas, And Sanitary Services;",Turkey,Antalya,,,,36.9008783,30.6937117,4911,
55169R,MSC Crociere SA,Company,"Transportation, Communications, Electric, Gas, And Sanitary Services","Transportation, Communications, Electric, Gas, And Sanitary Services;Services;",Italy,,,,,42.6384261,12.674297,4412,
00548Q,Adamovske Strojirny(CZ),Company,Services,Services;,Czech Republic,Adamov,,,,49.2991249,16.6571771,8711,
49202R,Kepez Elektrik TAS,Company,"Transportation, Communications, Electric, Gas, And Sanitary Services","Transportation, Communications, Electric, Gas, And Sanitary Services;",Turkey,Antalya,,1993-02-28,,36.9008783,30.6937117,4911,
82925H,Sindat,Company,Manufacturing,Manufacturing;Manufacturing;Manufacturing;,Czech Republic,,,,,49.8167003,15.4749544,2819,
87346F,TVEL,Company,Manufacturing,Mining;Manufacturing;,Russian Fed,Moscow,,,,55.7516335,37.6187042,2819,
87328H,TEB SA,Company,Services,Services;,Greece,,,1997-02-14,,39.000041,21.9999569,8711,
50212Y,LPL Shipping Co,Company,"Transportation, Communications, Electric, Gas, And Sanitary Services","Transportation, Communications, Electric, Gas, And Sanitary Services;",Greece,,,,,39.000041,21.9999569,4412,
90115Z,2 Mai SA(Romania),Company,Manufacturing,Services;Manufacturing;,Romania,Magnalia,,,,,,3731,
64009E,Neftochim Bourgas(Bulgaria),Company,Mining,Mining;Mining;Mining;,Bulgaria,,,,,42.6073975,25.4856617,1311,
64009T,Neftegas Ltd(Exxon Corp),Company,Mining,Mining;,Russian Fed,,,,,64.6863136,97.7453061,1311,
55289W,MAGE Co,Company,Mining,Mining;Mining;,Russian Fed,,,1995-01-01,,64.6863136,97.7453061,1311,
37295X,Geoplin SA,Company,Mining,Mining;Mining;Mining;,Croatia,,,2007-10-04,,45.5643442,17.0118954,1311,
61989H,Motor Sich,Company,Mining,Mining;,Italy,,,,,42.6384261,12.674297,1311,
Lukoil_node,Lukoil,Company,Mining,Manufacturing;Mining;Mining;Mining;Manufacturing;,Russian Fed,Moscow,,1992-07-24,,55.7516335,37.6187042,1311,
04676T,Atel Energia Srl,Company,"Transportation, Communications, Electric, Gas, And Sanitary Services","Transportation, Communications, Electric, Gas, And Sanitary Services;",Italy,Milan,,2007-11-11,,45.4667971,9.1904984,4911,
96766K,Wiener Stadtwerke Holding AG,Company,"Transportation, Communications, Electric, Gas, And Sanitary Services","Transportation, Communications, Electric, Gas, And Sanitary Services;Transportation, Communications, Electric, Gas, And Sanitary Services;Transportation, Communications, Electric, Gas, And Sanitary Services;Transportation, Communications, Electric, Gas, And Sanitary Services;Finance, Insurance, And Real Estate;",Austria,Vienna,,,,48.2083537,16.3725042,4931,
13788Z,Cantieri Navali Baglietto SpA,Company,Manufacturing,Manufacturing;,Italy,Varazze,,,,44.3595345,8.5749572,3731,
90012L,Turkiye Elektrik Dagitim AS,Company,"Transportation, Communications, Electric, Gas, And Sanitary Services","Transportation, Communications, Electric, Gas, And Sanitary Services;",Turkey,Ankara,,,,39.9220794,32.853758,4911,
71640Z,P.C.C,Company,Manufacturing,Manufacturing;,Iran,,,,,32.9407496,52.9471344,3533,
91687J,TNK-BP Holding,Company,Mining,Mining;Mining;,Russian Fed,Moscow,,2010-04-04,,55.7516335,37.6187042,1311,
25683V,Dolomiti Energia SpA,Company,"Transportation, Communications, Electric, Gas, And Sanitary Services","Transportation, Communications, Electric, Gas, And Sanitary Services;Transportation, Communications, Electric, Gas, And Sanitary Services;",Italy,Trento,,,,46.0664228,11.1257601,4931,
88033V,Tengizchevroil,Company,Mining,Mining;Mining;Mining;,Kazakhstan,Tengiz,,,,46.161377,53.4226896,1311,
51839K,Latsis,Company,Services,Services;,Greece,,,,,39.000041,21.9999569,8711,
78581X,STS,Company,"Transportation, Communications, Electric, Gas, And Sanitary Services","Transportation, Communications, Electric, Gas, And Sanitary Services;",Russian Fed,,,,,64.6863136,97.7453061,4911,
42772T,Heroflon,Company,Manufacturing,Manufacturing;Manufacturing;,Italy,"Collebeato, Brescia",,,,45.5813147,10.2102711,2819,
37219V,Plinovodi doo,Company,"Transportation, Communications, Electric, Gas, And Sanitary Services","Transportation, Communications, Electric, Gas, And Sanitary Services;Transportation, Communications, Electric, Gas, And Sanitary Services;",Slovenia,Ljubljana,,2011-12-09,,46.049865,14.5068921,4922,
90928L,Unified Electricity Systems,Company,"Transportation, Communications, Electric, Gas, And Sanitary Services","Transportation, Communications, Electric, Gas, And Sanitary Services;",Russian Fed,,,,,64.6863136,97.7453061,4911,
46584H,Italiana Petroli SpA,Company,"Transportation, Communications, Electric, Gas, And Sanitary Services","Transportation, Communications, Electric, Gas, And Sanitary Services;Transportation, Communications, Electric, Gas, And Sanitary Services;",Italy,Genova,,,,44.40726,8.9338624,4925,
Electricite_node,Electricite de France Intl SA,Company,"Transportation, Communications, Electric, Gas, And Sanitary Services",,France,Paris,,,,48.8564915,2.3521562,4911,
90250Z,TNK,Company,Mining,Mining;Mining;Mining;,Russian Fed,Moscow,,1998-02-23,,55.7516335,37.6187042,1311,
83497V,State Oil Concern Turkmeneft,Company,Mining,Mining;,Turkmenistan,,,,,39.3763807,59.3924609,1311,
67075V,OAO Arkhangelskgeoldobycha,Company,Mining,Mining;,Russian Fed,,,,,64.6863136,97.7453061,1311,
12115T,Burgas,Company,Mining,Mining;,Russian Fed,,,,,64.6863136,97.7453061,1381,
50127H,Kurchatov Institute,Company,Services,Services;,Russian Fed,Moscow,,,,55.7516335,37.6187042,8711,
50127N,Kurchatov Institute,Company,Services,Services;,Russian Fed,Moscow,,,,55.7516335,37.6187042,8711,
52648Z,Leviathan Field Licenses(2),Company,Mining,Mining;Mining;Mining;,Israel,,,,,30.8760272,35.0015196,1311,
92873E,Yuzhkazneftegaz(Kazakhstan),Company,Mining,Mining;,Kazakhstan,,,1994-06-28,,47.2286086,65.2093197,1311,
68591N,Orenburgneft,Company,Mining,Mining;,Russian Fed,Tyumen,,,,57.1535343,65.5422759,1311,
05766Z,Balcar,Company,Mining,Mining;,Russian Fed,,,,,64.6863136,97.7453061,1311,
40636F,Hallwood Caspian Petroleum LLC,Company,Mining,Mining;,Azerbaijan,,,1994-04-29,,40.3936294,47.7872508,1311,
71679L,Petrom SA,Company,Mining,Mining;Mining;Mining;,Romania,Bucharest,,1999-06-17,,44.4361414,26.1027443,1311,
07340Q,Beach Petroleum SRL,Company,Mining,Mining;Mining;Mining;,Romania,,,,,45.9852129,24.6859225,1311,
78229J,Saint Gobain Vetri SpA,Company,Manufacturing,Manufacturing;,Italy,,,2010-07-22,,42.6384261,12.674297,3221,
46535A,Italmanndorle,Company,Manufacturing,Manufacturing;,Italy,,,,,42.6384261,12.674297,2819,
36391V,E ON Hungaria Zrt,Company,"Transportation, Communications, Electric, Gas, And Sanitary Services","Transportation, Communications, Electric, Gas, And Sanitary Services;",Hungary,Budapest,,,,47.4983815,19.0404707,4911,
82265C,Shell Bulgaria EAD,Company,Mining,Mining;Mining;Mining;,Bulgaria,Sofia,,,,42.6977211,23.3225964,1311,
36227T,GPO Uzneftepererabotka,Company,Mining,Public Administration;Public Administration;Mining;,Uzbekistan,,,,,41.32373,63.9528098,1311,
46278P,OAO Nauchno Proizvodstvennaja,Company,Services,Services;Manufacturing;,Russian Fed,Irkutsk,,,,52.2895979,104.2805843,8711,
92690A,Villanyszereloeipari Rt,Company,"Transportation, Communications, Electric, Gas, And Sanitary Services","Transportation, Communications, Electric, Gas, And Sanitary Services;",Hungary,,,,,47.1817585,19.5060937,4911,
28236Q,Egyptian Electricity Authority,Company,"Transportation, Communications, Electric, Gas, And Sanitary Services","Transportation, Communications, Electric, Gas, And Sanitary Services;",Egypt,,,1993-02-20,,26.2540493,29.2675469,4911,
28236T,Egypt Gas Co,Company,"Transportation, Communications, Electric, Gas, And Sanitary Services","Transportation, Communications, Electric, Gas, And Sanitary Services;",Egypt,,,1994-11-30,,26.2540493,29.2675469,4924,
05477Z,Azerbaijan International Oil,Company,Mining,Mining;,Azerbaijan,,,1993-06-25,,40.3936294,47.7872508,1311,
86720N,Sunerg Solar SrL,Company,"Transportation, Communications, Electric, Gas, And Sanitary Services","Transportation, Communications, Electric, Gas, And Sanitary Services;",Italy,Citta Di Castello,,2006-07-06,,43.4574403,12.2405096,4911,
67772X,Neftegazinkor,Company,Mining,Mining;Mining;Mining;,Russian Fed,Moscow,,,,55.7516335,37.6187042,1311,
59162H,Metrostav AS,Company,Services,Services;,Czech Republic,,,,,49.8167003,15.4749544,8711,
00057C,Agsm Verona SpA,Company,"Transportation, Communications, Electric, Gas, And Sanitary Services","Transportation, Communications, Electric, Gas, And Sanitary Services;Transportation, Communications, Electric, Gas, And Sanitary Services;Transportation, Communications, Electric, Gas, And Sanitary Services;Transportation, Communications, Electric, Gas, And Sanitary Services;",Italy,Verona,,,,45.4384958,10.9924122,4911,
82577X,Sibneft,Company,Mining,Mining;,Russian Fed,Moscow,,,,55.7516335,37.6187042,1381,
92778Z,VA Tech Voest MCE,Company,Services,Services;,Austria,Linz,,,,48.3059078,14.286198,8711,
63935H,Navigation Maritime Bulgare,Company,"Transportation, Communications, Electric, Gas, And Sanitary Services","Transportation, Communications, Electric, Gas, And Sanitary Services;",Bulgaria,Varna,,,,43.2166104,27.9017131,4412,
92778C,VA Technologie AG,Company,Services,Services;Manufacturing;Manufacturing;Construction;,Austria,Linz,,,,48.3059078,14.286198,8711,
67083A,OEMV AG(Austria),Company,Mining,Wholesale Trade;Mining;Manufacturing;,Austria,Vienna,,,,48.2083537,16.3725042,1311,
24663Q,Delek Fuel Corp,Company,Mining,Mining;Mining;Mining;,Israel,,,1990-09-11,,30.8760272,35.0015196,1311,
24663R,Delek Oil Exploration Ltd,Company,Mining,Mining;,Israel,,,1990-09-11,,30.8760272,35.0015196,1311,
03168A,Amoco Egypt Oil Co(Amoco Corp),Company,Mining,Mining;,Egypt,"Digla, Maadi",,1994-11-30,,29.9592045,31.3163019,1311,
69760Y,OZDIL Inc,Company,Services,"Transportation, Communications, Electric, Gas, And Sanitary Services;Construction;Construction;Services;",Turkey,,,,,38.9597594,34.9249653,8711,
29231W,Enerpred Corp,Company,Manufacturing,Manufacturing;Services;Manufacturing;Manufacturing;,Russian Fed,Irkutsk,,,,52.2895979,104.2805843,3569,
29319N,EnergieAllianz Austria GmbH,Company,"Transportation, Communications, Electric, Gas, And Sanitary Services","Transportation, Communications, Electric, Gas, And Sanitary Services;",Austria,Wien,,,,48.2083537,16.3725042,4911,
67608J,Odessos Shiprepair Yard SA,Company,Manufacturing,Wholesale Trade;Manufacturing;Manufacturing;,Bulgaria,Varna,,,,43.2166104,27.9017131,3731,
83393V,SOCO Perm Russia(Perm Russia),Company,Mining,Mining;,Russian Fed,,,1993-08-18,,64.6863136,97.7453061,1311,
90438A,UniCredit Banca Mobiliare SpA,Company,"Finance, Insurance, And Real Estate","Finance, Insurance, And Real Estate;Services;Finance, Insurance, And Real Estate;Services;Services;Finance, Insurance, And Real Estate;",Italy,Milan,,,,45.4667971,9.1904984,6211,
Y1771G,Costamare Inc,Company,"Transportation, Communications, Electric, Gas, And Sanitary Services","Transportation, Communications, Electric, Gas, And Sanitary Services;",Greece,Athens,,,,37.9841493,23.7279843,4412,
68675E,Ormat Systems Ltd,Company,"Transportation, Communications, Electric, Gas, And Sanitary Services","Transportation, Communications, Electric, Gas, And Sanitary Services;Transportation, Communications, Electric, Gas, And Sanitary Services;",Israel,,,,,30.8760272,35.0015196,4911,
77842P,Rosshel'f,Company,Mining,Mining;Mining;Mining;,Russian Fed,St. Petersburg,,1993-08-27,,59.9393657,30.3153628,1311,
04613W,Astem Lodi SpA,Company,"Transportation, Communications, Electric, Gas, And Sanitary Services","Transportation, Communications, Electric, Gas, And Sanitary Services;Transportation, Communications, Electric, Gas, And Sanitary Services;Transportation, Communications, Electric, Gas, And Sanitary Services;Transportation, Communications, Electric, Gas, And Sanitary Services;Transportation, Communications, Electric, Gas, And Sanitary Services;Transportation, Communications, Electric, Gas, And Sanitary Services;Transportation, Communications, Electric, Gas, And Sanitary Services;Services;",Italy,Lodi,,2006-07-28,,45.3138959,9.503263,4925,
46682R,MKG ITERA,Company,Mining,Mining;Mining;Mining;,Russian Fed,Moscow,,2002-12-31,,55.7516335,37.6187042,1311,
92858V,Volgodonsk,Company,Manufacturing,Manufacturing;,Russian Fed,,,,,64.6863136,97.7453061,3569,
40328N,Guris Insaat ve Muhendislik AS,Company,Construction,Construction;Services;Construction;,Turkey,Ankara,,,,39.9220794,32.853758,1623,
82216J,SeverEnergiya,Company,Mining,"Mining;Mining;Mining;Finance, Insurance, And Real Estate;",Russian Fed,Moscow,,2011-09-16,,55.7516335,37.6187042,1311,
GAZPSB,Gazprom_Sub_List,Company,Mining,"Manufacturing;Mining;Mining;Mining;Finance, Insurance, And Real Estate;",Russian Fed,Moscow,,2001-03-21,,55.7516335,37.6187042,1311,
98826A,Zim Integrated Shipping Svcs,Company,"Transportation, Communications, Electric, Gas, And Sanitary Services","Transportation, Communications, Electric, Gas, And Sanitary Services;",Israel,Haifa,,,,32.8191218,34.9983856,4412,
81813N,Severmorneftegeofizika,Company,Mining,Mining;Mining;,Russian Fed,,,1995-01-01,,64.6863136,97.7453061,1311,
59124V,Metallchim-Progress AG,Company,Services,Manufacturing;Manufacturing;Manufacturing;Services;,Russian Fed,Moscow,,,,55.7516335,37.6187042,8711,
80582J,Sazeh Consultants PJSC,Company,Services,Services;Services;Services;,Iran,Tehran,,,,35.686172,51.4223519,8711,
71399X,Peri,Company,"Transportation, Communications, Electric, Gas, And Sanitary Services","Transportation, Communications, Electric, Gas, And Sanitary Services;",Georgia,,,,,32.3293809,-83.1137365,4911,
47280F,Istrabenz Gorenje,Company,"Transportation, Communications, Electric, Gas, And Sanitary Services","Transportation, Communications, Electric, Gas, And Sanitary Services;",Slovenia,,,,,45.8133113,14.4808369,4911,
11204Q,Brodosplit dd,Company,Manufacturing,Wholesale Trade;Manufacturing;,Croatia,Split,,,,43.5115555,16.4396801,3731,
24812Q,Demikhov,Company,Services,Services;Manufacturing;,Russian Fed,Orekhovo Zuyevo,,,,55.8083278,38.9790038,8711,
56824C,Marine Geophysics Research,Company,Mining,Mining;Mining;,Russian Fed,,,1995-01-01,,64.6863136,97.7453061,1311,
86367U,Transgaz SA,Company,Mining,"Transportation, Communications, Electric, Gas, And Sanitary Services;Mining;",Romania,Medias,,,,46.1649111,24.3511266,1321,
60622W,MCN,Company,Manufacturing,"Transportation, Communications, Electric, Gas, And Sanitary Services;Manufacturing;",Russian Fed,,,,,64.6863136,97.7453061,3731,
45769Q,Inocon(High Tech Holding),Company,Services,Services;,Austria,,,,,47.2000338,13.199959,8711,
55311K,MOL Rt,Company,Mining,Mining;Mining;Mining;,Hungary,Budapest,,1994-09-30,,47.4983815,19.0404707,1311,
17160T,Cia Tecnica Internazionale,Company,Services,Services;,Italy,Rome,,,,41.8935085,12.4825526,8711,
50293W,Kvadro Kft,Company,Manufacturing,Manufacturing;Manufacturing;,Hungary,,,,,47.1817585,19.5060937,3221,
83158P,Slovnaft as,Company,Mining,Manufacturing;Mining;,Czech Republic,Bratislava,,1992-01-16,,49.1686623,16.6231418,1311,
10005M,BVK,Company,Manufacturing,Manufacturing;Manufacturing;,Hungary,,,,,47.1817585,19.5060937,2819,
12016A,Bulkitalia Intl(Coeclerici),Company,"Transportation, Communications, Electric, Gas, And Sanitary Services","Transportation, Communications, Electric, Gas, And Sanitary Services;",Italy,16122 Genova,,,,44.40726,8.9338624,4412,
71651L,Petros J Goulandris Sons Group,Company,"Transportation, Communications, Electric, Gas, And Sanitary Services","Transportation, Communications, Electric, Gas, And Sanitary Services;",Greece,,,1999-02-12,,39.000041,21.9999569,4412,
10005W,Borsa Italiana SpA,Company,"Finance, Insurance, And Real Estate","Finance, Insurance, And Real Estate;Finance, Insurance, And Real Estate;",Italy,Milan,,,,45.4667971,9.1904984,6211,
78438R,STF SpA,Company,Manufacturing,Manufacturing;Manufacturing;,Italy,Milan,,,,45.4667971,9.1904984,3443,
78224N,NK RussNeft',Company,Mining,Mining;Mining;Mining;,Russian Fed,Moscow,,,,55.7516335,37.6187042,1311,
87891W,Tenex,Company,Manufacturing,Mining;Manufacturing;Wholesale Trade;,Russian Fed,Moscow,,,,55.7516335,37.6187042,2819,
M37576,Elbit Vision Systems Ltd,Company,Manufacturing,Manufacturing;,Israel,Kadima,,,,32.2764459,34.9125436,3823,
90017A,Turkmengaz,Company,Mining,Mining;,Turkmenistan,,,1999-11-01,,39.3763807,59.3924609,1311,
06179L,Bul-Energy OOD,Company,"Transportation, Communications, Electric, Gas, And Sanitary Services","Transportation, Communications, Electric, Gas, And Sanitary Services;",Bulgaria,,,,,42.6073975,25.4856617,4911,
87656B,Tatneft' im V D Shashina,Company,Mining,"Wholesale Trade;Mining;Manufacturing;Services;Finance, Insurance, And Real Estate;Mining;Mining;",Russian Fed,Almetyevsk,,1997-09-26,,54.8996495,52.3014846,1311,
50056N,OAO KomiTEK,Company,Mining,Wholesale Trade;Mining;Manufacturing;,Russian Fed,Komi Republic,,1998-12-08,,63.9881421,54.3326073,1311,
01080Z,Aksoy Holding AS,Company,Mining,"Wholesale Trade;Construction;Mining;Construction;Finance, Insurance, And Real Estate;Finance, Insurance, And Real Estate;Mining;Mining;",Turkey,Istanbul,,,,41.0096334,28.9651646,1311,
73154P,Poltavanaftogazgeologiya,Company,Mining,Mining;Mining;Mining;,Ukraine,,,2007-07-12,,49.4871968,31.2718321,1311,
05348R,Avangard Shipbuilding Plant,Company,Manufacturing,Manufacturing;,Russian Fed,,,,,64.6863136,97.7453061,3731,
04968P,ZAO AtomStroyExport,Company,"Transportation, Communications, Electric, Gas, And Sanitary Services","Transportation, Communications, Electric, Gas, And Sanitary Services;",Russian Fed,Moscow,,,,55.7516335,37.6187042,4911,
X7023M,Public Power Corp SA,Company,"Transportation, Communications, Electric, Gas, And Sanitary Services","Transportation, Communications, Electric, Gas, And Sanitary Services;",Greece,Athens,,,,37.9841493,23.7279843,4911,
48250V,KHK Poisk,Company,Mining,"Mining;Mining;Finance, Insurance, And Real Estate;",Kazakhstan,,,1994-04-26,,47.2286086,65.2093197,1311,
80374Z,Sarlux Srl,Company,"Transportation, Communications, Electric, Gas, And Sanitary Services","Transportation, Communications, Electric, Gas, And Sanitary Services;",Italy,Milan,,,,45.4667971,9.1904984,4911,
90371N,Ukrainian State Committee,Company,Mining,Mining;,Ukraine,,,,,49.4871968,31.2718321,1311,
93539T,Suleimaniah Gas Power Station,Company,"Transportation, Communications, Electric, Gas, And Sanitary Services","Transportation, Communications, Electric, Gas, And Sanitary Services;Transportation, Communications, Electric, Gas, And Sanitary Services;Transportation, Communications, Electric, Gas, And Sanitary Services;",Iraq,Suleimaniah,,,,,,4911,
78309F,Russian Fuel & Energy Ministry,Company,Public Administration,Public Administration;Public Administration;,Russian Fed,,,,,64.6863136,97.7453061,9631,
78309T,Russian International Economic,Company,Mining,Mining;,Russian Fed,,,,,64.6863136,97.7453061,1311,
68557W,Orava Niznansd SP,Company,Services,Services;,Slovakia,,,1991-07-17,,48.7411522,19.4528646,8711,
46777Y,Italtrading SpA,Company,Mining,Mining;Mining;Mining;,Italy,Milan,,,,45.4667971,9.1904984,1311,
40246A,Gulf Oil International GmbH,Company,Mining,Mining;,Austria,,,,,47.2000338,13.199959,1311,
83561Q,Soli Group LLC,Company,Services,Services;,Israel,,,,,30.8760272,35.0015196,8711,
48679Z,Kazgiprotsvetmet,Company,Services,Services;,Kazakhstan,,,,,47.2286086,65.2093197,8711,
24218B,Dead Sea Bromine Group,Company,Manufacturing,Manufacturing;,Israel,"Beersheba, Southern",,,,,,2819,
13321A,Camel Robot,Company,Manufacturing,Manufacturing;,Italy,,,,,42.6384261,12.674297,3569,
87862M,TPL Tecnologie Progetti Lavori,Company,Services,Services;Services;Services;,Italy,Roma,,,,41.8935085,12.4825526,8711,
26871L,ENPPI,Company,Services,Services;Construction;Construction;,Egypt,"El-Horreya, Heliopolis, Cairo",,2008-03-10,,30.0975208,31.3435107,8711,
47682M,JOEL,Company,Mining,Mining;Mining;Mining;,Israel,Petah Tikva,,1990-09-11,,32.0877639,34.8859985,1311,
47682R,Jerusalem Global Ltd,Company,"Finance, Insurance, And Real Estate","Finance, Insurance, And Real Estate;",Israel,Jerusalem,,,,31.7968155,35.2137815559015,6211,
82266J,Shell Pecten(Shell Oil Co),Company,Mining,Mining;,Ukraine,,,,,49.4871968,31.2718321,1311,
86634W,Tarbagatay Munai LLP,Company,Mining,Mining;Mining;Mining;,Kazakhstan,,,,,47.2286086,65.2093197,1311,
83542B,Sondel(Falck),Company,"Transportation, Communications, Electric, Gas, And Sanitary Services","Transportation, Communications, Electric, Gas, And Sanitary Services;",Italy,Milan,,,,45.4667971,9.1904984,4911,
83386E,SOCAR,Company,Mining,Mining;Mining;Mining;,Azerbaijan,Baku,,1994-02-15,,40.3754289,49.8328549,1311,
81720E,Senega,Company,Mining,Public Administration;,Russian Fed,Novi Urengoi,,,,66.085196,76.6799167,1311,
73056M,Poisk(Kazakhstan),Company,Mining,Mining;Mining;,Kazakhstan,,,1995-04-17,,47.2286086,65.2093197,1311,
88395J,TerniEnergia SpA,Company,"Transportation, Communications, Electric, Gas, And Sanitary Services","Manufacturing;Manufacturing;Transportation, Communications, Electric, Gas, And Sanitary Services;",Italy,Narni,,2010-06-08,,42.5195891,12.5152257,4911,
04729E,Aksa Enerji Uretim AS,Company,"Transportation, Communications, Electric, Gas, And Sanitary Services","Transportation, Communications, Electric, Gas, And Sanitary Services;",Turkey,Istanbul,,,,41.0096334,28.9651646,4911,
81818E,ZAO Severstaltrans,Company,"Transportation, Communications, Electric, Gas, And Sanitary Services","Transportation, Communications, Electric, Gas, And Sanitary Services;Transportation, Communications, Electric, Gas, And Sanitary Services;",Russian Fed,Moscow,,,,55.7516335,37.6187042,4922,
36952V,GE Oil & Gas,Company,Manufacturing,Manufacturing;Mining;,Italy,Florence,,,,43.7698712,11.2555757,3533,
26746A,Dyatkovo Factory,Company,Manufacturing,Manufacturing;,Russian Fed,,,,,64.6863136,97.7453061,3221,
04218P,Armaturentechnik Gerald Zak,Company,Manufacturing,Manufacturing;Manufacturing;,Austria,,,,,47.2000338,13.199959,3491,
29761K,Eteva(National Bank Of Greece),Company,"Finance, Insurance, And Real Estate","Finance, Insurance, And Real Estate;",Greece,,,,,39.000041,21.9999569,6211,
87372A,TB Piesslinger Ges.m.b.H.,Company,Services,Services;Services;Services;Services;,Austria,,,,,47.2000338,13.199959,8711,
01295P,A2A SpA,Company,"Transportation, Communications, Electric, Gas, And Sanitary Services","Transportation, Communications, Electric, Gas, And Sanitary Services;Transportation, Communications, Electric, Gas, And Sanitary Services;Construction;Transportation, Communications, Electric, Gas, And Sanitary Services;Transportation, Communications, Electric, Gas, And Sanitary Services;Transportation, Communications, Electric, Gas, And Sanitary Services;",Italy,Brescia,,,,45.5399392,10.2204897,4911,
75148P,RAO EES,Company,"Transportation, Communications, Electric, Gas, And Sanitary Services","Transportation, Communications, Electric, Gas, And Sanitary Services;",Russian Fed,,,,,64.6863136,97.7453061,4911,
91724D,UNGG,Company,Mining,Mining;Mining;Mining;,Russian Fed,Urengoy,,,,65.9642323,78.3679808,1311,
44900Z,INA Industrija Nafte dd,Company,Mining,Mining;Mining;Mining;,Croatia,Zagreb,,,,45.8131545,15.9770298,1311,
59053A,Merk Solar Enerji Cozumleri,Company,Services,Services;Construction;,Turkey,Istanbul,,,,41.0096334,28.9651646,8711,
42804I,Herwig Kruezhuber,Company,Services,Services;,Austria,,,1991-07-17,,47.2000338,13.199959,8711,
90864Z,Union Texas Qobustan Ltd,Company,Mining,Mining;,Azerbaijan,,,,,40.3936294,47.7872508,1311,
85589E,West Siberian Resources Ltd,Company,Mining,Mining;Mining;Mining;,Russian Fed,,,,,64.6863136,97.7453061,1311,
45787T,Inst of Design Engineering,Company,Services,Services;,Russian Fed,Novosibirsk,,,,55.0282215,82.9234476,8711,
43974N,Khazar Shipping Co,Company,"Transportation, Communications, Electric, Gas, And Sanitary Services","Transportation, Communications, Electric, Gas, And Sanitary Services;",Iran,Gilan,,,,37.3388456,49.3785519,4412,
00444C,Acea SpA,Company,"Transportation, Communications, Electric, Gas, And Sanitary Services","Transportation, Communications, Electric, Gas, And Sanitary Services;Transportation, Communications, Electric, Gas, And Sanitary Services;Transportation, Communications, Electric, Gas, And Sanitary Services;",Italy,Rome,,,,41.8935085,12.4825526,4911,
51515N,Landi Renzo SpA,Company,Mining,Mining;Mining;,Italy,Cavriago,,,,44.6941945,10.5268984,1311,
76243D,Rhone-Poulenc Italia SpA,Company,Manufacturing,Manufacturing;Manufacturing;Manufacturing;Manufacturing;Manufacturing;Manufacturing;,Italy,,,,,42.6384261,12.674297,2819,
34984Y,Forum Maritime SA,Company,"Transportation, Communications, Electric, Gas, And Sanitary Services","Transportation, Communications, Electric, Gas, And Sanitary Services;",Greece,,,1993-06-21,,39.000041,21.9999569,4412,
12622L,Coercit Engineering,Company,Services,Services;,Ukraine,,,,,49.4871968,31.2718321,8711,
01916C,AES Entek Elektrik Uretimi AS,Company,"Transportation, Communications, Electric, Gas, And Sanitary Services","Transportation, Communications, Electric, Gas, And Sanitary Services;",Turkey,"Uskudar, Istanbul",,,,41.0293083,29.0326345,4911,
01163Z,Alarko Alsim,Company,Services,Services;,Turkey,Istanbul,,,,41.0096334,28.9651646,8711,
90371Y,Ukrneft,Company,Mining,Mining;Mining;Mining;,Ukraine,,,1993-04-07,,49.4871968,31.2718321,1311,
05882A,Baltic Shipping Line,Company,"Transportation, Communications, Electric, Gas, And Sanitary Services","Transportation, Communications, Electric, Gas, And Sanitary Services;",Russian Fed,,,1993-02-10,,64.6863136,97.7453061,4412,
59140E,Meta SpA,Company,"Transportation, Communications, Electric, Gas, And Sanitary Services","Transportation, Communications, Electric, Gas, And Sanitary Services;",Italy,80 Modena,,2003-09-23,,44.6458885,10.9255707,4911,
03921Z,Arcadia Management Shipping Co,Company,"Transportation, Communications, Electric, Gas, And Sanitary Services","Transportation, Communications, Electric, Gas, And Sanitary Services;",Greece,,,,,39.000041,21.9999569,4412,
65602A,Noril'skgazprom,Company,Mining,"Transportation, Communications, Electric, Gas, And Sanitary Services;Mining;Mining;Mining;",Russian Fed,Norilsk,,,,69.3498394,88.200517,1382,
49949T,Lasmo(MP) Ltd,Company,Mining,Mining;Mining;Mining;,Italy,Portofino,,,,44.3036653,9.2093446,1311,
269265,EVN AG,Company,"Transportation, Communications, Electric, Gas, And Sanitary Services","Transportation, Communications, Electric, Gas, And Sanitary Services;Transportation, Communications, Electric, Gas, And Sanitary Services;Transportation, Communications, Electric, Gas, And Sanitary Services;Transportation, Communications, Electric, Gas, And Sanitary Services;Transportation, Communications, Electric, Gas, And Sanitary Services;Transportation, Communications, Electric, Gas, And Sanitary Services;Transportation, Communications, Electric, Gas, And Sanitary Services;Transportation, Communications, Electric, Gas, And Sanitary Services;Transportation, Communications, Electric, Gas, And Sanitary Services;Transportation, Communications, Electric, Gas, And Sanitary Services;",Austria,Maria Enzersdorf,,1996-08-22,,48.09284015,16.2724652987978,4911,
75968P,Renel(Romania),Company,"Transportation, Communications, Electric, Gas, And Sanitary Services","Transportation, Communications, Electric, Gas, And Sanitary Services;",Romania,,,,,45.9852129,24.6859225,4911,
50021C,Kogalymneftegaz,Company,Mining,Mining;,Russian Fed,Moscow,,1994-11-18,,55.7516335,37.6187042,1311,
00194W,A/O Samotler Services,Company,Mining,Mining;,Russian Fed,,,,,64.6863136,97.7453061,1311,
74163O,Primorsk Shipping,Company,Manufacturing,Manufacturing;,Russian Fed,"Nakhdoka,Primorsky Territory",,,,,,3731,
00276X,ABB,Company,Services,Services;,Russian Fed,,,,,64.6863136,97.7453061,8711,
87854L,Techint Finanziaria Srl,Company,Manufacturing,Manufacturing;,Italy,Milan,,,,45.4667971,9.1904984,3569,
46674H,JSC Uralkali,Company,Manufacturing,Manufacturing;Mining;,Russian Fed,Pervouralsk,,,,56.904859,59.9431194,2819,
87854N,Techint Group,Company,Services,Services;,Italy,Milan,,,,45.4667971,9.1904984,8711,
29277F,Energie Steiermark AG,Company,"Transportation, Communications, Electric, Gas, And Sanitary Services","Transportation, Communications, Electric, Gas, And Sanitary Services;Transportation, Communications, Electric, Gas, And Sanitary Services;Finance, Insurance, And Real Estate;",Austria,Graz,,,,47.0702563,15.4385716,4911,
87889P,Tedea Ltd,Company,Manufacturing,Manufacturing;,Israel,Herzliya Pituach,,,,32.1742238,34.8079236,3823,
92397T,Valbart Srl,Company,Manufacturing,Wholesale Trade;Manufacturing;,Italy,Mezzago (Milan),,,,,,3491,
90003V,Turcas Petrol AS,Company,Mining,"Wholesale Trade;Mining;Manufacturing;Retail Trade;Retail Trade;Finance, Insurance, And Real Estate;Mining;Mining;",Turkey,Istanbul,,2006-12-30,,41.0096334,28.9651646,1311,
1A7859,Hellenic Electricity,Company,"Transportation, Communications, Electric, Gas, And Sanitary Services","Transportation, Communications, Electric, Gas, And Sanitary Services;",Greece,Athens,,,,37.9841493,23.7279843,4911,
67228N,OAO Gas Oil,Company,Mining,Mining;Mining;Mining;,Russian Fed,,,,,64.6863136,97.7453061,1311,
72361A,Pinnacle Turkey Inc,Company,Mining,Mining;Mining;Mining;,Turkey,,,2008-04-07,,38.9597594,34.9249653,1311,
63144H,Nadra Ukrainy,Company,Mining,Mining;Mining;Mining;,Ukraine,Kyiv,,2007-07-12,,50.4501071,30.5240501,1311,
57936F,McCallan Oil&Gas MesgbH,Company,Mining,Mining;,Austria,,,,,47.2000338,13.199959,1311,
60710W,Mobil Expl Mediterranean Inc,Company,Mining,Mining;,Turkey,,,,,38.9597594,34.9249653,1311,
60710R,Mobil Oil Tulpar Inc(Mobil),Company,Mining,Mining;,Kazakhstan,,,1995-04-17,,47.2286086,65.2093197,1311,
90379J,Ukos Petroleum Bulgaria,Company,Mining,Mining;,Bulgaria,,,1999-04-14,,42.6073975,25.4856617,1311,
90379E,Ukrenergo,Company,"Transportation, Communications, Electric, Gas, And Sanitary Services","Transportation, Communications, Electric, Gas, And Sanitary Services;",Ukraine,Kyiv,,,,50.4501071,30.5240501,4911,
71674Y,Petrosan,Company,Mining,Mining;,Turkey,,,,,38.9597594,34.9249653,1311,
90113V,Tver Steklor(Russia),Company,Manufacturing,Manufacturing;,Russian Fed,,,,,64.6863136,97.7453061,3221,
63576Y,National Electricity Co,Company,"Transportation, Communications, Electric, Gas, And Sanitary Services","Transportation, Communications, Electric, Gas, And Sanitary Services;",Bulgaria,,,,,42.6073975,25.4856617,4911,
87673N,Tbilgaz(Georgia),Company,"Transportation, Communications, Electric, Gas, And Sanitary Services","Transportation, Communications, Electric, Gas, And Sanitary Services;Transportation, Communications, Electric, Gas, And Sanitary Services;Transportation, Communications, Electric, Gas, And Sanitary Services;Transportation, Communications, Electric, Gas, And Sanitary Services;",Georgia,,,,,32.3293809,-83.1137365,4911,
05259I,Austrian Danube Steamship Co,Company,"Transportation, Communications, Electric, Gas, And Sanitary Services","Transportation, Communications, Electric, Gas, And Sanitary Services;Transportation, Communications, Electric, Gas, And Sanitary Services;",Austria,,,1991-04-15,,47.2000338,13.199959,4412,
293624,Ente Nazionale per l'Energia,Company,"Transportation, Communications, Electric, Gas, And Sanitary Services","Transportation, Communications, Electric, Gas, And Sanitary Services;",Italy,Rome,,1997-05-29,,41.8935085,12.4825526,4911,
293623,Ente Nazionale Idrocarburi,Company,Mining,"Construction;Wholesale Trade;Wholesale Trade;Transportation, Communications, Electric, Gas, And Sanitary Services;Manufacturing;Manufacturing;Manufacturing;Construction;Retail Trade;Manufacturing;Manufacturing;Services;Manufacturing;Mining;Finance, Insurance, And Real Estate;Mining;Manufacturing;Mining;",Italy,Roma,,1993-02-23,,41.8935085,12.4825526,1311,
29362V,Ente Nazionale Idrocarburi SpA,Company,Mining,Mining;,Italy,Roma,,1995-06-26,,41.8935085,12.4825526,1381,
85771I,Statni Plavebni Serava,Company,"Transportation, Communications, Electric, Gas, And Sanitary Services","Transportation, Communications, Electric, Gas, And Sanitary Services;Transportation, Communications, Electric, Gas, And Sanitary Services;Transportation, Communications, Electric, Gas, And Sanitary Services;",Czech Republic,"Melnik,Czechoslovakia Republic",,1991-03-11,,,,4412,
98916H,Zarubezhnegtegaz,Company,Mining,Mining;Mining;Mining;,Russian Fed,Moscow,,1990-10-12,,55.7516335,37.6187042,1311,
55967J,MOL Plc,Company,Mining,"Transportation, Communications, Electric, Gas, And Sanitary Services;Manufacturing;Wholesale Trade;Wholesale Trade;Mining;Manufacturing;Wholesale Trade;Mining;Mining;",Hungary,Budapest,,2007-09-10,,47.4983815,19.0404707,1311,
0C9388,Altair Semiconductor Ltd,Company,Manufacturing,Manufacturing;Manufacturing;Manufacturing;,Israel,Hod Hasharon,,,,32.1561974,34.8930354,3823,
77926C,Rouno Nuclear Power Station,Company,"Transportation, Communications, Electric, Gas, And Sanitary Services","Transportation, Communications, Electric, Gas, And Sanitary Services;",Ukraine,,,,,49.4871968,31.2718321,4911,
46277W,Islamic Republic of Iran,Company,"Transportation, Communications, Electric, Gas, And Sanitary Services","Transportation, Communications, Electric, Gas, And Sanitary Services;",Iran,Tehran,,,,35.686172,51.4223519,4412,
00865E,Agronaftexservis,Company,Mining,Mining;,Ukraine,,,,,49.4871968,31.2718321,1381,
84344X,Shemen Oil & Gas Resources Ltd,Company,Mining,Mining;Mining;Mining;,Israel,Petah Tikva,,2012-11-13,,32.0877639,34.8859985,1311,
88006N,Tecnosistemi SpA,Company,Construction,Construction;,Italy,Settimo Milanese,,,,45.4803094,9.0553555,1623,
19268K,Cogeme SpA,Company,"Transportation, Communications, Electric, Gas, And Sanitary Services","Services;Transportation, Communications, Electric, Gas, And Sanitary Services;Services;Services;Services;Public Administration;Transportation, Communications, Electric, Gas, And Sanitary Services;",Italy,Rovato (Bs),,2006-07-28,,45.5670385,9.9986008,4924,
01346P,Albpetrol SH.A.,Company,Mining,Mining;,Albania,Fier,,,,40.7250935,19.5582186,1311,
04434H,Ascent Hungary,Company,Mining,Mining;Mining;Mining;,Hungary,,,,,47.1817585,19.5060937,1311,
57028J,Marittima Fluviale of Savonna,Company,"Transportation, Communications, Electric, Gas, And Sanitary Services","Transportation, Communications, Electric, Gas, And Sanitary Services;Transportation, Communications, Electric, Gas, And Sanitary Services;Transportation, Communications, Electric, Gas, And Sanitary Services;",Italy,Savona,,,,44.3080251,8.4810315,4412,
14949Z,Cavagna Group SpA,Company,Manufacturing,Wholesale Trade;Manufacturing;,Italy,Brescia,,,,45.5399392,10.2204897,3491,
29203K,EOL LLC,Company,Manufacturing,Manufacturing;Wholesale Trade;,Russian Fed,Moscow,,,,55.7516335,37.6187042,3569,
88535P,Turgas SA,Company,Mining,Mining;Mining;Mining;,Turkey,,,2008-11-17,,38.9597594,34.9249653,1311,
89701C,Trombini Group,Company,"Transportation, Communications, Electric, Gas, And Sanitary Services","Services;Transportation, Communications, Electric, Gas, And Sanitary Services;Transportation, Communications, Electric, Gas, And Sanitary Services;Finance, Insurance, And Real Estate;",Italy,Ravenna,,,,44.4161414,12.2017617,4412,
35952G,Fugro Maklina,Company,Mining,Mining;,Turkey,,,1993-06-25,,38.9597594,34.9249653,1311,
90419Z,Udmurtia Oil Company,Company,Mining,Mining;,Russian Fed,Udmurtia,,1998-03-06,,57.1982875,52.7618345382518,1311,
4A4440,SC Comproiect 92 SA,Company,Services,Services;,Romania,,,,,45.9852129,24.6859225,8711,
00618Z,Akkok Sanayi ve Yatirim,Company,Manufacturing,"Finance, Insurance, And Real Estate;Wholesale Trade;Finance, Insurance, And Real Estate;Manufacturing;Transportation, Communications, Electric, Gas, And Sanitary Services;Transportation, Communications, Electric, Gas, And Sanitary Services;Transportation, Communications, Electric, Gas, And Sanitary Services;Transportation, Communications, Electric, Gas, And Sanitary Services;Finance, Insurance, And Real Estate;Finance, Insurance, And Real Estate;",Turkey,Istanbul,,,,41.0096334,28.9651646,2819,
81802L,Servizi per l'Energia Srl,Company,Services,Services;Services;,Italy,Genoa,,,,44.40726,8.9338624,8711,
00117L,Agip Azerbaijan BV,Company,Mining,Mining;,Azerbaijan,,,1995-06-02,,40.3936294,47.7872508,1311,
67220T,Korporatsiya Ordabasy,Company,Mining,Mining;Mining;Mining;,Kazakhstan,Almaty,,,,43.21984255,76.9183518874968,1311,
76519J,Quest Holdings SA,Company,"Transportation, Communications, Electric, Gas, And Sanitary Services","Transportation, Communications, Electric, Gas, And Sanitary Services;Transportation, Communications, Electric, Gas, And Sanitary Services;Services;Services;Services;Services;Transportation, Communications, Electric, Gas, And Sanitary Services;",Greece,Athens,,,,37.9841493,23.7279843,4911,
45473E,RusGidro,Company,"Transportation, Communications, Electric, Gas, And Sanitary Services","Transportation, Communications, Electric, Gas, And Sanitary Services;Transportation, Communications, Electric, Gas, And Sanitary Services;",Russian Fed,Krasnoiarsk,,,,56.0082657,92.8706219,4911,
91125V,United Oil Co,Company,Mining,Mining;Mining;Mining;,Russian Fed,Moscow,,,,55.7516335,37.6187042,1311,
91802X,Utility Acea,Company,"Transportation, Communications, Electric, Gas, And Sanitary Services","Transportation, Communications, Electric, Gas, And Sanitary Services;Transportation, Communications, Electric, Gas, And Sanitary Services;",Italy,,,1999-02-02,,42.6384261,12.674297,4931,
82257V,Shell Egypt-Egyptian Oil,Company,Mining,Mining;,Egypt,,,,,26.2540493,29.2675469,1311,
58496Z,Megionneftegaz,Company,Mining,Mining;Mining;,Russian Fed,,,1994-05-01,,64.6863136,97.7453061,1311,
58496T,Megionneftegazgeologiya,Company,Mining,Mining;,Russian Fed,,,1994-05-01,,64.6863136,97.7453061,1311,
00728W,Agro Mier,Company,"Finance, Insurance, And Real Estate","Finance, Insurance, And Real Estate;",Egypt,,,,,26.2540493,29.2675469,6211,
04123N,Arkhangelskgeologia(Russia),Company,Mining,Mining;,Russian Fed,,,1992-06-18,,64.6863136,97.7453061,1311,
88825T,TVK,Company,Manufacturing,Manufacturing;Manufacturing;,Hungary,Tiszaujvaros,,1994-11-16,,47.9280341,21.0467056,2819,
80460A,Savske Elektrarne Ljubljana,Company,"Transportation, Communications, Electric, Gas, And Sanitary Services","Transportation, Communications, Electric, Gas, And Sanitary Services;",Slovenia,,,1998-07-29,,45.8133113,14.4808369,4911,
Enagas_node,Enagas SA,Company,"Transportation, Communications, Electric, Gas, And Sanitary Services","Transportation, Communications, Electric, Gas, And Sanitary Services;Transportation, Communications, Electric, Gas, And Sanitary Services;Transportation, Communications, Electric, Gas, And Sanitary Services;Transportation, Communications, Electric, Gas, And Sanitary Services;Transportation, Communications, Electric, Gas, And Sanitary Services;",Spain,Madrid,,,,40.4167047,-3.7035824,4923,
92232L,Petreco Petroleum Company,Company,Mining,Mining;Mining;Mining;Mining;,Bulgaria,,,,,42.6073975,25.4856617,1311,
15675M,Ceres Hellenic Shipping Entps,Company,"Transportation, Communications, Electric, Gas, And Sanitary Services","Transportation, Communications, Electric, Gas, And Sanitary Services;",Greece,Piraeus,,,,37.9440078,23.6483599,4412,
29558E,Enel Produzione SpA,Company,"Transportation, Communications, Electric, Gas, And Sanitary Services","Transportation, Communications, Electric, Gas, And Sanitary Services;",Italy,Rome,,2010-06-02,,41.8935085,12.4825526,4911,
26874R,ENI SpA,Company,Mining,"Construction;Wholesale Trade;Wholesale Trade;Transportation, Communications, Electric, Gas, And Sanitary Services;Manufacturing;Manufacturing;Manufacturing;Construction;Retail Trade;Manufacturing;Manufacturing;Services;Manufacturing;Mining;Finance, Insurance, And Real Estate;Mining;Manufacturing;Mining;",Italy,Roma,,1997-05-29,,41.8935085,12.4825526,1311,
30192F,Exxon Azerbajan(Exxon Corp),Company,Mining,Mining;,Azerbaijan,,,1998-02-03,,40.3936294,47.7872508,1311,
76142T,Reussag Wasser und Rohrtechnik,Company,"Transportation, Communications, Electric, Gas, And Sanitary Services","Transportation, Communications, Electric, Gas, And Sanitary Services;",Croatia,,,1998-10-22,,45.5643442,17.0118954,4925,
90010R,Turkwind Energie Ltd,Company,"Transportation, Communications, Electric, Gas, And Sanitary Services","Transportation, Communications, Electric, Gas, And Sanitary Services;",Turkey,,,,,38.9597594,34.9249653,4911,
03226Z,Anadolu Shipping Inc,Company,"Transportation, Communications, Electric, Gas, And Sanitary Services","Transportation, Communications, Electric, Gas, And Sanitary Services;",Turkey,"Uskudar, Istanbul",,,,41.0293083,29.0326345,4412,
64137L,Nessuah Zannex Ltd,Company,"Finance, Insurance, And Real Estate","Finance, Insurance, And Real Estate;",Israel,Ramat Gan,,,,32.0724892,34.824244,6211,
69494V,Pasubio Group Srl,Company,"Transportation, Communications, Electric, Gas, And Sanitary Services","Transportation, Communications, Electric, Gas, And Sanitary Services;Transportation, Communications, Electric, Gas, And Sanitary Services;Transportation, Communications, Electric, Gas, And Sanitary Services;",Italy,Schio (Vi),,,,45.7112148,11.3555202,4922,
36499Y,Garanti Yatirim Menkul,Company,"Finance, Insurance, And Real Estate","Finance, Insurance, And Real Estate;Finance, Insurance, And Real Estate;",Turkey,Istanbul,,,,41.0096334,28.9651646,6211,
11891K,Budapesti Eromu Rt,Company,"Transportation, Communications, Electric, Gas, And Sanitary Services","Transportation, Communications, Electric, Gas, And Sanitary Services;",Hungary,Budapest,,,,47.4983815,19.0404707,4911,
30723E,Far Eastern Shipbuilding,Company,Manufacturing,Manufacturing;,Russian Fed,,,,,64.6863136,97.7453061,3731,
67028Q,Nuclear Power Plants Authority,Company,"Transportation, Communications, Electric, Gas, And Sanitary Services","Transportation, Communications, Electric, Gas, And Sanitary Services;",Egypt,,,1993-02-20,,26.2540493,29.2675469,4911,
79629Y,Salzburg AG,Company,"Transportation, Communications, Electric, Gas, And Sanitary Services","Transportation, Communications, Electric, Gas, And Sanitary Services;Transportation, Communications, Electric, Gas, And Sanitary Services;Transportation, Communications, Electric, Gas, And Sanitary Services;Transportation, Communications, Electric, Gas, And Sanitary Services;Finance, Insurance, And Real Estate;",Austria,Salzburg,,,,47.7981346,13.0464806,4911,
05211X,Ausimont Srl(Montedison SpA),Company,Manufacturing,Manufacturing;Manufacturing;Manufacturing;,Italy,"Bollate, Milan",,,,45.543835,9.1177075,2819,
79521A,Salini Costruttori SpA,Company,Services,Services;,Italy,Milano,,,,45.4667971,9.1904984,8711,
76677T,Rinako Plus,Company,"Finance, Insurance, And Real Estate","Finance, Insurance, And Real Estate;",Russian Fed,,,,,64.6863136,97.7453061,6211,
49028V,Iraqi Ministry of Electricity,Company,"Transportation, Communications, Electric, Gas, And Sanitary Services","Transportation, Communications, Electric, Gas, And Sanitary Services;",Iraq,Baghdad,,,,33.3024248,44.3787992,4911,
48813M,KGNT Holding,Company,Mining,Mining;Mining;Mining;,Kazakhstan,,,,,47.2286086,65.2093197,1311,
77537P,RAG Rohoel-Aufsuchungs AG,Company,Mining,Mining;Mining;Mining;,Austria,Vienna,,,,48.2083537,16.3725042,1311,
88217Y,TGC-4,Company,"Transportation, Communications, Electric, Gas, And Sanitary Services","Transportation, Communications, Electric, Gas, And Sanitary Services;",Russian Fed,Tula,,,,54.1938261,37.6158717,4911,
73047J,Poalim Capital Markets,Company,"Finance, Insurance, And Real Estate","Finance, Insurance, And Real Estate;",Israel,Tel Aviv,,,,32.0804808,34.7805274,6211,
84603A,Sovkomflot,Company,"Transportation, Communications, Electric, Gas, And Sanitary Services","Transportation, Communications, Electric, Gas, And Sanitary Services;",Russian Fed,Moscow,,,,55.7516335,37.6187042,4412,
05308E,Austrian Petroleum & Gas,Company,Mining,Mining;,Austria,,,,,47.2000338,13.199959,1311,
25153M,Drejtoria Pergjitheshmer DHF,Company,Mining,"Manufacturing;Transportation, Communications, Electric, Gas, And Sanitary Services;Mining;",Albania,,,,,41.000028,19.9999619,1311,
78897L,Srbijagas,Company,Mining,Mining;Mining;Mining;,Serbia,Novi Sad,,,,45.2551053,19.845081,1311,
79333F,St Petersburg Control Sys Plan,Company,Manufacturing,Manufacturing;,Russian Fed,St Petersburg,,,,59.9393657,30.3153628,3823,
45650H,INA dd,Company,Mining,Mining;,Croatia,Rijeka,,1996-02-27,,45.3269357,14.4409841,1311,
50101P,Krimenerho,Company,"Transportation, Communications, Electric, Gas, And Sanitary Services","Transportation, Communications, Electric, Gas, And Sanitary Services;",Ukraine,Simferopol,,1992-02-24,,44.9521394,34.1024575,4911,
01567T,OOO ArkhTekhnoProm,Company,Construction,Construction;,Russian Fed,,,,,64.6863136,97.7453061,1623,
63660Q,National Iranian Oil Co,Company,Mining,Mining;Mining;Mining;,Iran,Tehran,,2004-02-25,,35.686172,51.4223519,1311,
63660A,National Iranian Gas Co(Iran),Company,"Transportation, Communications, Electric, Gas, And Sanitary Services","Transportation, Communications, Electric, Gas, And Sanitary Services;",Iran,,,,,32.9407496,52.9471344,4931,
87012N,Telloil Co,Company,Mining,Mining;Mining;Mining;,Russian Fed,,,,,64.6863136,97.7453061,1311,
63338Y,Namvaran Engineering & Mgmt Co,Company,Services,Services;Services;Services;,Iran,Tehran,,,,35.686172,51.4223519,8711,
83610W,Soyuzmorgeo(Russia),Company,Mining,Mining;Mining;,Russian Fed,,,1995-01-01,,64.6863136,97.7453061,1311,
1A5188,APS Ambalaj Paketleme Sanayi,Company,Manufacturing,Manufacturing;Manufacturing;Manufacturing;Wholesale Trade;Manufacturing;,Turkey,"Tuzla, Istanbul",,,,40.8166668,29.3008332,3221,
1E8888,WESTOIL LLC,Company,Mining,Mining;,Russian Fed,,,,,64.6863136,97.7453061,1311,
62920E,NK Slavneft,Company,Mining,Mining;Mining;,Russian Fed,Moscow,,1999-04-14,,55.7516335,37.6187042,1311,
30493M,FGTecnopolo SpA,Company,Services,Services;,Italy,Rome,,,,41.8935085,12.4825526,8711,
Rosneft_node,Rosneft,Company,Mining,Mining;Mining;Mining;,Russian Fed,Moscow,,1992-07-24,,55.7516335,37.6187042,1311,
46835A,Israeli Test House Ltd,Company,Services,Services;,Israel,Migdal Ha'Emek,,,,32.6765718,35.2413237,8711,
Wintershall_node,Wintershall Holding GmbH,Company,Mining,"Mining;Mining;Mining;Transportation, Communications, Electric, Gas, And Sanitary Services;",Germany,Kassel,,1990-10-12,,51.3090209,9.4762981,1311,
24552W,Degaz,Company,"Transportation, Communications, Electric, Gas, And Sanitary Services","Transportation, Communications, Electric, Gas, And Sanitary Services;Transportation, Communications, Electric, Gas, And Sanitary Services;Transportation, Communications, Electric, Gas, And Sanitary Services;Transportation, Communications, Electric, Gas, And Sanitary Services;",Hungary,Szeged,,,,46.2546312,20.1486016,4922,
98953Y,Zignago Vetro SpA,Company,Manufacturing,Manufacturing;,Italy,Fossalta Di Portogruaro,,2010-07-22,,45.7917474,12.9090234,3221,
98928N,Zorlu Enerji Elektrik Uretim,Company,"Transportation, Communications, Electric, Gas, And Sanitary Services","Transportation, Communications, Electric, Gas, And Sanitary Services;Transportation, Communications, Electric, Gas, And Sanitary Services;Transportation, Communications, Electric, Gas, And Sanitary Services;",Turkey,Bursa,,,,40.1827061,29.0667635,4911,
70453M,Paz Oil Co Ltd,Company,Mining,Mining;Mining;Mining;,Israel,Netanya,,,,32.3286181,34.8566246,1311,
70453C,Paz Oil Exploration Ltd,Company,Mining,Mining;,Israel,,,1992-02-11,,30.8760272,35.0015196,1311,
12033T,Bulgartransgaz EAD,Company,"Transportation, Communications, Electric, Gas, And Sanitary Services","Transportation, Communications, Electric, Gas, And Sanitary Services;Transportation, Communications, Electric, Gas, And Sanitary Services;Transportation, Communications, Electric, Gas, And Sanitary Services;",Bulgaria,Sofia,,,,42.6977211,23.3225964,4922,
29281H,Energie AG Oberoesterreich,Company,"Transportation, Communications, Electric, Gas, And Sanitary Services","Transportation, Communications, Electric, Gas, And Sanitary Services;Public Administration;Services;Transportation, Communications, Electric, Gas, And Sanitary Services;",Austria,Linz,,,,48.3059078,14.286198,4911,
50078E,Krasnoleninsk Oil and Gas,Company,Mining,Mining;,Russian Fed,,,,,64.6863136,97.7453061,1311,
78389V,SCI(Val Morsone),Company,Mining,Mining;,Italy,,,,,42.6384261,12.674297,1311,
91275Z,Unimar Logistics Inc,Company,"Transportation, Communications, Electric, Gas, And Sanitary Services","Transportation, Communications, Electric, Gas, And Sanitary Services;Transportation, Communications, Electric, Gas, And Sanitary Services;Transportation, Communications, Electric, Gas, And Sanitary Services;Transportation, Communications, Electric, Gas, And Sanitary Services;",Turkey,Izmir,,,,38.4153421,27.144474,4412,
49372J,Phoenix Resources Co of Egypt,Company,Mining,Mining;,Egypt,,,1994-06-27,,26.2540493,29.2675469,1311,
63022F,Naftohaz Ukrainy,Company,Mining,Mining;Mining;Mining;,Ukraine,Kyiv,,2006-01-31,,50.4501071,30.5240501,1311,
90250T,OAO Tyumenneftegeofizika,Company,Mining,Mining;,Russian Fed,Tyumen,,1993-04-07,,57.1535343,65.5422759,1382,
74387P,Prometheus Gas SA,Company,"Transportation, Communications, Electric, Gas, And Sanitary Services","Transportation, Communications, Electric, Gas, And Sanitary Services;",Greece,,,,,39.000041,21.9999569,4922,
63579F,NEK,Company,"Transportation, Communications, Electric, Gas, And Sanitary Services","Transportation, Communications, Electric, Gas, And Sanitary Services;",Bulgaria,Sofia,,,,42.6977211,23.3225964,4911,
67123C,Nurgun Group,Company,"Finance, Insurance, And Real Estate","Finance, Insurance, And Real Estate;Finance, Insurance, And Real Estate;",Azerbaijan,,,,,40.3936294,47.7872508,6211,
89350K,Transelectrica SA,Company,"Transportation, Communications, Electric, Gas, And Sanitary Services","Transportation, Communications, Electric, Gas, And Sanitary Services;",Romania,Bucharest,,,,44.4361414,26.1027443,4911,
12542X,CHV Litivnov(Czechoslovakia),Company,Mining,Mining;,Czech Republic,,,,,49.8167003,15.4749544,1311,
65563L,Nordline First Hungarian Sec,Company,"Finance, Insurance, And Real Estate","Finance, Insurance, And Real Estate;",Hungary,,,,,47.1817585,19.5060937,6211,
9045JN,Undisclosed Iraqi Co,Company,Mining,Mining;,Iraq,,,1997-03-25,,33.0955793,44.1749775,1381,
73199H,Polyarnyuralgeologiya(Russia),Company,Mining,Mining;,Russian Fed,,,,,64.6863136,97.7453061,1382,
27519Q,East Shuqair Oilfield,Company,Mining,Mining;,Egypt,,,,,26.2540493,29.2675469,1311,
98455W,OKB im A S Yakovlev,Company,Services,Services;Manufacturing;,Russian Fed,Moscow,,,,55.7516335,37.6187042,8711,
91730Y,Uninsk NGDU(Russia),Company,Mining,Mining;,Russian Fed,,,1992-06-25,,64.6863136,97.7453061,1311,
79663V,Samaragaz OAO,Company,"Transportation, Communications, Electric, Gas, And Sanitary Services","Transportation, Communications, Electric, Gas, And Sanitary Services;Transportation, Communications, Electric, Gas, And Sanitary Services;",Russian Fed,Samara,,,,53.1986275,50.113988,4924,
65391X,Nikolyev,Company,Manufacturing,Manufacturing;,Ukraine,,,,,49.4871968,31.2718321,3731,
83279K,Sorgenia SpA,Company,"Transportation, Communications, Electric, Gas, And Sanitary Services","Transportation, Communications, Electric, Gas, And Sanitary Services;Transportation, Communications, Electric, Gas, And Sanitary Services;",Italy,Milan,,,,45.4667971,9.1904984,4911,
48567N,Karazhambasmunai(Kazakhstan),Company,Mining,Mining;,Kazakhstan,,,,,47.2286086,65.2093197,1311,
36736A,Gas-Oil SA,Company,Mining,Mining;Mining;Mining;,Russian Fed,Kaliningrad,,,,54.7066422,20.5105166,1311,
36736R,Gasstroymontaj,Company,Construction,Construction;Services;Construction;,Bulgaria,Sofia,,,,42.6977211,23.3225964,1623,
76100F,Research Inst of Gas Discharge,Company,Manufacturing,Manufacturing;Services;,Russian Fed,,,,,64.6863136,97.7453061,3824,
82586R,Sidermar di Navigazione SpA,Company,"Transportation, Communications, Electric, Gas, And Sanitary Services","Transportation, Communications, Electric, Gas, And Sanitary Services;",Italy,Genova,,,,44.40726,8.9338624,4412,
52637C,Lenzing Technik GmbH & Co KG,Company,Services,Services;,Austria,Lenzing,,,,47.9733296,13.6049039,8711,
48665T,Kazakhstan Pipeline Ventures,Company,"Transportation, Communications, Electric, Gas, And Sanitary Services","Transportation, Communications, Electric, Gas, And Sanitary Services;Transportation, Communications, Electric, Gas, And Sanitary Services;",Kazakhstan,,,1992-07-24,,47.2286086,65.2093197,4923,
05882X,Baltic Navagation Co,Company,"Transportation, Communications, Electric, Gas, And Sanitary Services","Transportation, Communications, Electric, Gas, And Sanitary Services;",Russian Fed,,,1993-02-10,,64.6863136,97.7453061,4412,
03759F,Apichem SpA,Company,Manufacturing,Manufacturing;Manufacturing;Manufacturing;,Italy,Mussolente,,,,45.7789522,11.8012715,2819,
80404W,Sattarhan Engineering,Company,Manufacturing,Manufacturing;,Azerbaijan,Baku,,,,40.3754289,49.8328549,3533,
39850Y,Grimaldi Group SpA,Company,"Transportation, Communications, Electric, Gas, And Sanitary Services","Transportation, Communications, Electric, Gas, And Sanitary Services;Transportation, Communications, Electric, Gas, And Sanitary Services;Transportation, Communications, Electric, Gas, And Sanitary Services;Transportation, Communications, Electric, Gas, And Sanitary Services;Finance, Insurance, And Real Estate;",Italy,Palermo,,,,38.11127,13.3534422,4412,
39850K,Grimaldi Compagnia,Company,"Transportation, Communications, Electric, Gas, And Sanitary Services","Transportation, Communications, Electric, Gas, And Sanitary Services;",Italy,Naples,,,,40.8359336,14.2487826,4412,
46769N,OGK-1,Company,"Transportation, Communications, Electric, Gas, And Sanitary Services","Transportation, Communications, Electric, Gas, And Sanitary Services;",Russian Fed,Moscow,,,,55.7516335,37.6187042,4911,
81499A,Sevmash,Company,Manufacturing,Services;Manufacturing;Manufacturing;,Russian Fed,Severodvinsk,,,,64.5633236,39.8243248,3731,
63280A,Anel Enerji Elektrik Uretim,Company,"Transportation, Communications, Electric, Gas, And Sanitary Services","Manufacturing;Services;Services;Transportation, Communications, Electric, Gas, And Sanitary Services;",Turkey,Istanbul,,,,41.0096334,28.9651646,4911,
75374X,Progresstech LTD,Company,Services,Services;,Russian Fed,Moscow,,,,55.7516335,37.6187042,8711,
71411P,Perm Nefteorgsintec Assn,Company,"Transportation, Communications, Electric, Gas, And Sanitary Services","Transportation, Communications, Electric, Gas, And Sanitary Services;",Russian Fed,,,1993-02-10,,64.6863136,97.7453061,4412,
90937Y,United Arab Stevedoring Co,Company,"Transportation, Communications, Electric, Gas, And Sanitary Services","Transportation, Communications, Electric, Gas, And Sanitary Services;Transportation, Communications, Electric, Gas, And Sanitary Services;Transportation, Communications, Electric, Gas, And Sanitary Services;Transportation, Communications, Electric, Gas, And Sanitary Services;",Egypt,Alexandria,,,,31.1990035,29.8943785,4412,
74943R,RDS Securities(Raggio di Sole),Company,"Finance, Insurance, And Real Estate","Finance, Insurance, And Real Estate;",Italy,,,,,42.6384261,12.674297,6211,
68166P,Olympic Shipping,Company,Manufacturing,Manufacturing;,Greece,,,,,39.000041,21.9999569,3731,
37840P,Global Yatirim Holding AS,Company,"Transportation, Communications, Electric, Gas, And Sanitary Services","Finance, Insurance, And Real Estate;Finance, Insurance, And Real Estate;Transportation, Communications, Electric, Gas, And Sanitary Services;Finance, Insurance, And Real Estate;Finance, Insurance, And Real Estate;Finance, Insurance, And Real Estate;Transportation, Communications, Electric, Gas, And Sanitary Services;Finance, Insurance, And Real Estate;Transportation, Communications, Electric, Gas, And Sanitary Services;",Turkey,Istanbul,,,,41.0096334,28.9651646,4911,
10007R,Borzen doo,Company,"Finance, Insurance, And Real Estate","Finance, Insurance, And Real Estate;",Slovenia,Ljubljana,,,,46.049865,14.5068921,6211,
70503I,Peat Enterprises Co,Company,Manufacturing,Manufacturing;Manufacturing;,Czech Republic,,,,,49.8167003,15.4749544,2819,
285288,Electrochemical Inds(Frutarom),Company,Manufacturing,Manufacturing;,Israel,"Acre,Haifa",,,,32.866667,35.05,2819,
30673C,Energetika Ljubljana doo,Company,"Transportation, Communications, Electric, Gas, And Sanitary Services","Transportation, Communications, Electric, Gas, And Sanitary Services;Transportation, Communications, Electric, Gas, And Sanitary Services;Transportation, Communications, Electric, Gas, And Sanitary Services;",Slovenia,Ljubljana,,2011-12-09,,46.049865,14.5068921,4911,
46668A,Kazokhoil(Kazakhstan),Company,Mining,Mining;,Kazakhstan,,,1999-06-17,,47.2286086,65.2093197,1382,
98426K,YUKSI,Company,Mining,Mining;,Russian Fed,,,,,64.6863136,97.7453061,1311,
44692W,OSK,Company,Manufacturing,"Manufacturing;Manufacturing;Finance, Insurance, And Real Estate;",Russian Fed,Saint Petersburg,,,,59.9393657,30.3153628,3731,
04677N,Ates Medica Device Srl,Company,Manufacturing,Services;Services;Manufacturing;,Italy,Verona,,,,45.4384958,10.9924122,3823,
71791N,Petromar Resources SA,Company,Mining,Mining;Mining;Mining;,Romania,Constanta,,,,44.1724166,28.6208196629799,1311,
90170W,Uljanik dd,Company,Manufacturing,Manufacturing;,Croatia,Pula,,2008-07-22,,44.868823,13.8461349,3731,
52729F,Leumi Investment Bankers Ltd,Company,"Finance, Insurance, And Real Estate","Finance, Insurance, And Real Estate;",Israel,Tel Aviv,,,,32.0804808,34.7805274,6211,
91603Z,BioGazEnergoStroy,Company,Construction,Construction;Construction;Construction;,Russian Fed,Moscow,,,,55.7516335,37.6187042,1623,
71643H,Petrimex,Company,Manufacturing,Manufacturing;Manufacturing;,Czech Republic,Bratislava,,,,49.1686623,16.6231418,2819,
90015V,Turkmenneft,Company,Mining,Mining;,Turkmenistan,,,1999-11-01,,39.3763807,59.3924609,1311,
68222L,Omya Gummern,Company,Mining,Mining;,Austria,,,,,47.2000338,13.199959,1311,
46527F,Italchem Ayalon Ltd,Company,Manufacturing,Manufacturing;Services;Manufacturing;Manufacturing;,Israel,,,,,30.8760272,35.0015196,2819,
29331R,Enichem Synthesis,Company,Manufacturing,Manufacturing;Manufacturing;,Italy,Milan,,,,45.4667971,9.1904984,2819,
29296Z,GP NAEK Enerrhoatom,Company,"Transportation, Communications, Electric, Gas, And Sanitary Services","Transportation, Communications, Electric, Gas, And Sanitary Services;",Ukraine,Kiev,,,,50.4501071,30.5240501,4911,
36815M,GEKh,Company,"Transportation, Communications, Electric, Gas, And Sanitary Services","Transportation, Communications, Electric, Gas, And Sanitary Services;",Russian Fed,Moscow,,,,55.7516335,37.6187042,4911,
44630C,Iskra-Avigaz,Company,Services,Services;,Russian Fed,Perm,,,,58.0149643,56.2467244,8711,
93635L,Versalis SpA,Company,Manufacturing,Manufacturing;Manufacturing;,Italy,San Donato Milanese,,,,45.41807,9.27165,2819,
12705X,Caboto Holding SpA(Pirelli),Company,"Finance, Insurance, And Real Estate","Finance, Insurance, And Real Estate;",Italy,Milan,,,,45.4667971,9.1904984,6211,
29373F,Entek Elektrik Uretimi AS,Company,"Transportation, Communications, Electric, Gas, And Sanitary Services","Transportation, Communications, Electric, Gas, And Sanitary Services;",Turkey,Kartepe-Kocaeli,,,,40.692493,30.0364545,4911,
56273C,Mandressi SRL,Company,Services,Services;,Italy,Milan,,,,45.4667971,9.1904984,8711,
06705X,Baran Group Ltd,Company,Services,Services;Services;,Israel,Beit-Dagan,,,,32.0041846,34.8185213,8711,
70975F,Penzagazifikatsiya,Company,"Transportation, Communications, Electric, Gas, And Sanitary Services","Transportation, Communications, Electric, Gas, And Sanitary Services;Transportation, Communications, Electric, Gas, And Sanitary Services;Transportation, Communications, Electric, Gas, And Sanitary Services;",Russian Fed,Penza,,,,53.2,45.0,4923,
62976T,Nagyalfoldi(Hungary),Company,Mining,Mining;,Hungary,,,,,47.1817585,19.5060937,1311,
62976W,Naftgaran Engineesring Service,Company,Mining,Mining;,Iran,,,,,32.9407496,52.9471344,1381,
71852A,Phillips Petroleum Co North,Company,Mining,Mining;,Egypt,,,1992-02-06,,26.2540493,29.2675469,1311,
12769P,Caffaro Srl,Company,Manufacturing,Manufacturing;Manufacturing;,Italy,Torviscosa,,,,45.822216,13.276933,2819,
21075I,Administratia Porturilor,Company,"Transportation, Communications, Electric, Gas, And Sanitary Services","Transportation, Communications, Electric, Gas, And Sanitary Services;Transportation, Communications, Electric, Gas, And Sanitary Services;",Romania,Constanta,,,,44.1724166,28.6208196629799,4412,
88552Z,Thrace Basin Natural Gas,Company,Mining,Mining;Mining;Mining;,Turkey,Ankara,,2008-04-07,,39.9220794,32.853758,1311,
88017Q,Technoplast McD Industrial,Company,Manufacturing,Manufacturing;Manufacturing;,Hungary,,,,,47.1817585,19.5060937,3569,
910921,OMZ,Company,Manufacturing,"Manufacturing;Manufacturing;Manufacturing;Manufacturing;Manufacturing;Manufacturing;Manufacturing;Manufacturing;Manufacturing;Finance, Insurance, And Real Estate;Manufacturing;",Russian Fed,Moscow,,,,55.7516335,37.6187042,3569,
29265W,Enel SpA,Company,"Transportation, Communications, Electric, Gas, And Sanitary Services","Transportation, Communications, Electric, Gas, And Sanitary Services;",Italy,Rome,,2000-08-02,,41.8935085,12.4825526,4911,
2E4044,AIRTECHSERVICES CORP,Company,Services,Services;,Azerbaijan,,,,,40.3936294,47.7872508,8711,
28520Y,Elektroprivreda Srbije(Serbia),Company,"Transportation, Communications, Electric, Gas, And Sanitary Services","Transportation, Communications, Electric, Gas, And Sanitary Services;",Serbia,,,,,44.1534121,20.55144,4911,
67246M,Notos doo,Company,"Transportation, Communications, Electric, Gas, And Sanitary Services","Transportation, Communications, Electric, Gas, And Sanitary Services;",Serbia,Belgrade,,,,44.8178787,20.4568089,4911,
15349X,Central Fuel Caspian Sea Ltd,Company,Mining,Mining;,Azerbaijan,,,1998-07-21,,40.3936294,47.7872508,1311,
04623T,Aster Associate Termoimpianti,Company,Services,Services;,Italy,Milano,,,,45.4667971,9.1904984,8711,
69322L,PBS Brno,Company,Services,Services;,Czech Republic,,,1997-04-04,,49.8167003,15.4749544,8711,
92975X,VNIIGAS,Company,Mining,Mining;Services;,Russian Fed,,,,,64.6863136,97.7453061,1382,
92857B,Voest-Alpine Industrieanlagen,Company,Services,Services;Construction;Construction;Construction;Manufacturing;,Austria,Linz,,,,48.3059078,14.286198,8711,
24985T,Derrick Holdings,Company,Manufacturing,Manufacturing;,Russian Fed,,,,,64.6863136,97.7453061,3731,
47087M,Jantech,Company,Services,Services;,Italy,,,,,42.6384261,12.674297,8711,
78413E,SEMP Electro-Mechanical Works,Company,"Transportation, Communications, Electric, Gas, And Sanitary Services","Transportation, Communications, Electric, Gas, And Sanitary Services;",Russian Fed,,,,,64.6863136,97.7453061,4911,
49373K,JSC Khimprom,Company,Manufacturing,Manufacturing;Manufacturing;Manufacturing;,Russian Fed,Moscow,,,,55.7516335,37.6187042,2819,
49373C,Khabarovsk and Komsomolsk-na,Company,Mining,Mining;,Russian Fed,,,,,64.6863136,97.7453061,1311,
50027C,OAO Komineft,Company,Mining,Mining;Mining;Mining;,Russian Fed,Komi,,1992-06-25,,63.9881421,54.3326073,1311,
29034M,Elton Chemicals SA,Company,Manufacturing,Manufacturing;Manufacturing;Manufacturing;,Greece,,,,,39.000041,21.9999569,2819,
65651L,Norsi-Oil(Russia),Company,Mining,Mining;,Russian Fed,,,,,64.6863136,97.7453061,1311,
29603F,Ersan Petrol Sanayii AS,Company,Mining,Mining;,Turkey,,,,,38.9597594,34.9249653,1311,
28237J,Egyptian Petrochemicals Co,Company,Mining,Manufacturing;Manufacturing;Mining;,Egypt,,,,,26.2540493,29.2675469,1311,
30260Z,FBM-Hudson Italiana SpA,Company,Manufacturing,Manufacturing;,Italy,"Terno D Isola, Bergamo",,,,,,3533,
98956F,Zim Shipping,Company,"Transportation, Communications, Electric, Gas, And Sanitary Services","Transportation, Communications, Electric, Gas, And Sanitary Services;",Israel,,,,,30.8760272,35.0015196,4412,
74651P,PugliaEnergy,Company,"Transportation, Communications, Electric, Gas, And Sanitary Services","Transportation, Communications, Electric, Gas, And Sanitary Services;",Italy,,,2006-11-13,,42.6384261,12.674297,4911,
74349Y,Property Management Committee,Company,Mining,Mining;Mining;,Russian Fed,,,1995-01-01,,64.6863136,97.7453061,1311,
91941F,Valiexchimp SLR,Company,Mining,Mining;Mining;Mining;,Moldova,,,,,47.286747,28.5110236,1311,
49269Q,KER Ltd,Company,Services,Services;,Russian Fed,,,,,64.6863136,97.7453061,8711,
82576P,Sibenergomash OJSC,Company,Manufacturing,Manufacturing;Manufacturing;Manufacturing;,Russian Fed,,,,,64.6863136,97.7453061,3443,
20083M,Societatea Comerciala,Company,"Transportation, Communications, Electric, Gas, And Sanitary Services","Transportation, Communications, Electric, Gas, And Sanitary Services;",Romania,Targu Jiu,,,,45.046411,23.2807825428323,4911,
55426N,Mac Petroleum,Company,Mining,Mining;,Macedonia,,,,,41.6171214,21.7168387,1311,
67255Q,TKZ Krasnyi Kotel'shchik,Company,Manufacturing,Manufacturing;Manufacturing;Wholesale Trade;,Russian Fed,Taganrog,,,,47.2136896,38.903365,3443,
25809A,Dor Energy Ltd,Company,"Transportation, Communications, Electric, Gas, And Sanitary Services","Transportation, Communications, Electric, Gas, And Sanitary Services;Transportation, Communications, Electric, Gas, And Sanitary Services;Transportation, Communications, Electric, Gas, And Sanitary Services;Transportation, Communications, Electric, Gas, And Sanitary Services;",Israel,,,,,30.8760272,35.0015196,4922,
44554H,Hungarian Vilati Automation,Company,Manufacturing,Manufacturing;,Hungary,Budapest,,,,47.4983815,19.0404707,3823,
44554U,OKGT,Company,Mining,Mining;,Hungary,,,,,47.1817585,19.5060937,1311,
13791Q,Cantieri Navali Valdettaro,Company,Manufacturing,Manufacturing;,Italy,,,,,42.6384261,12.674297,3731,
60488N,Misr Petrol Co,Company,Mining,Mining;,Egypt,,,,,26.2540493,29.2675469,1311,
60488Z,Egyptian Electricity Holding,Company,"Transportation, Communications, Electric, Gas, And Sanitary Services","Transportation, Communications, Electric, Gas, And Sanitary Services;",Egypt,Cairo,,2007-12-03,,30.0488185,31.2436663,4911,
00095V,"ACT(Agip SpA,Chevron,Texaco)",Company,Mining,Mining;,Italy,"Raffadali, Agrigento",,,,37.40364,13.533057,1311,
0A4878,Caspian Drilling Co Ltd,Company,Mining,Mining;Mining;Mining;,Azerbaijan,Caspian,,2012-11-13,,40.37526755,49.8927634720012,1311,
36474W,Ganz Hunslet Rt,Company,Services,Services;,Hungary,,,,,47.1817585,19.5060937,8711,
87809P,Terna SpA,Company,"Transportation, Communications, Electric, Gas, And Sanitary Services","Transportation, Communications, Electric, Gas, And Sanitary Services;",Italy,Roma,,,,41.8935085,12.4825526,4911,
98687X,AKFEL Group AS,Company,Services,Services;Services;,Turkey,"Camlica Uskudar, Istanbul",,,,41.0081837,29.0483474885253,8711,
92252F,Vemer Elettronica Spa,Company,"Transportation, Communications, Electric, Gas, And Sanitary Services","Transportation, Communications, Electric, Gas, And Sanitary Services;Transportation, Communications, Electric, Gas, And Sanitary Services;",Italy,,,,,42.6384261,12.674297,4911,
01091A,CNPC - AMG,Company,Mining,Mining;Mining;Mining;,Kazakhstan,Aktobe,,1995-04-17,,50.2796448,57.2124606,1311,
91813L,Uzbek Ministry of Power and,Company,"Transportation, Communications, Electric, Gas, And Sanitary Services","Transportation, Communications, Electric, Gas, And Sanitary Services;",Uzbekistan,,,,,41.32373,63.9528098,4911,
33770T,fischer+bhm INGENIEURE,Company,Services,Services;Services;,Austria,,,,,47.2000338,13.199959,8711,
68389P,Optrotech Ltd,Company,Manufacturing,Manufacturing;Wholesale Trade;,Israel,Yavne,,,,31.8761804,34.7380919,3823,
72626P,Repsol Exploracion Egipto SA,Company,Mining,Mining;,Egypt,,,1994-06-27,,26.2540493,29.2675469,1311,
83410P,Sol SpA,Company,Mining,Mining;Mining;,Italy,Monza,,1993-03-12,,45.5834418,9.2735257,1311,
78427M,SIR SpA(Maraldi),Company,Manufacturing,Manufacturing;Manufacturing;,Italy,Milano,,,,45.4667971,9.1904984,2819,
30230U,Exxon Ventures(CIS)Inc,Company,Mining,Mining;,Russian Fed,,,,,64.6863136,97.7453061,1311,
50475K,Kremsmueller,Company,Services,Services;,Austria,Steinhaus Bei Wels,,,,48.1193113,14.0179378,8711,
91836H,Uzenftegazstroy,Company,Mining,Mining;Mining;,Uzbekistan,,,,,41.32373,63.9528098,1381,
87281M,TTurkish Petroleum Corporation,Company,Mining,Mining;Mining;Mining;Mining;,Turkey,,,,,38.9597594,34.9249653,1311,
23570L,Damco Energy SA,Company,"Transportation, Communications, Electric, Gas, And Sanitary Services","Transportation, Communications, Electric, Gas, And Sanitary Services;Transportation, Communications, Electric, Gas, And Sanitary Services;Transportation, Communications, Electric, Gas, And Sanitary Services;Transportation, Communications, Electric, Gas, And Sanitary Services;",Greece,Athens,,,,37.9841493,23.7279843,4911,
61971K,Mostransgas,Company,Mining,Mining;,Russian Fed,,,,,64.6863136,97.7453061,1311,
92015P,Turk Hava Yollari Teknik AS,Company,Services,Services;Services;,Turkey,Istanbul,,,,41.0096334,28.9651646,8711,
29695V,Entropya SRL,Company,"Transportation, Communications, Electric, Gas, And Sanitary Services","Transportation, Communications, Electric, Gas, And Sanitary Services;",Italy,,,,,42.6384261,12.674297,4911,
9A4027,Augustea Atlantic SPA,Company,"Transportation, Communications, Electric, Gas, And Sanitary Services","Transportation, Communications, Electric, Gas, And Sanitary Services;",Italy,Naples,,,,40.8359336,14.2487826,4412,
28087A,Edison SpA,Company,"Transportation, Communications, Electric, Gas, And Sanitary Services","Transportation, Communications, Electric, Gas, And Sanitary Services;Manufacturing;Transportation, Communications, Electric, Gas, And Sanitary Services;Mining;Transportation, Communications, Electric, Gas, And Sanitary Services;Transportation, Communications, Electric, Gas, And Sanitary Services;Transportation, Communications, Electric, Gas, And Sanitary Services;Transportation, Communications, Electric, Gas, And Sanitary Services;Mining;Mining;Mining;",Italy,Milan,,1995-09-20,,45.4667971,9.1904984,4911,
85848Q,Steirische Wasserkraft und,Company,"Transportation, Communications, Electric, Gas, And Sanitary Services","Transportation, Communications, Electric, Gas, And Sanitary Services;Transportation, Communications, Electric, Gas, And Sanitary Services;Transportation, Communications, Electric, Gas, And Sanitary Services;",Austria,"Graz, Steirmark (reg)",,1992-12-09,,,,4931,
61955W,Moscow Central Fuel Company,Company,Mining,Mining;,Russian Fed,Moscow,,1998-03-06,,55.7516335,37.6187042,1311,
71681H,Petropars Co Ltd,Company,Mining,Mining;Mining;Mining;,Iran,,,,,32.9407496,52.9471344,1311,
91657P,Tekar Teknik Arastirma Tic Ltd,Company,Services,Services;,Turkey,Ankara,,,,39.9220794,32.853758,8711,
65226P,NewTech Services,Company,Mining,Construction;Mining;,Russian Fed,Moscow,,,,55.7516335,37.6187042,1381,
83159T,Slovak Power Enterprise,Company,"Transportation, Communications, Electric, Gas, And Sanitary Services","Transportation, Communications, Electric, Gas, And Sanitary Services;",Slovakia,,,,,48.7411522,19.4528646,4911,
36716J,GASCO,Company,"Transportation, Communications, Electric, Gas, And Sanitary Services","Transportation, Communications, Electric, Gas, And Sanitary Services;Transportation, Communications, Electric, Gas, And Sanitary Services;Transportation, Communications, Electric, Gas, And Sanitary Services;",Egypt,Cairo,,2008-03-10,,30.0488185,31.2436663,4923,
45885P,Italcogim SpA,Company,"Transportation, Communications, Electric, Gas, And Sanitary Services","Transportation, Communications, Electric, Gas, And Sanitary Services;Transportation, Communications, Electric, Gas, And Sanitary Services;Transportation, Communications, Electric, Gas, And Sanitary Services;",Italy,Milan,,,,45.4667971,9.1904984,4924,
24743W,Delta Rasmala Securities,Company,"Finance, Insurance, And Real Estate","Finance, Insurance, And Real Estate;Finance, Insurance, And Real Estate;",Egypt,"Smart Village Area, Cairo",,,,,,6211,
5A6753,BETA Securities SA,Company,"Finance, Insurance, And Real Estate","Finance, Insurance, And Real Estate;",Greece,Athens,,,,37.9841493,23.7279843,6211,
01888N,NK Al'yans,Company,Mining,Mining;Mining;Mining;,Russian Fed,Moscow,,,,55.7516335,37.6187042,1311,
0E9596,Pennzoil Caspian Corp,Company,Mining,Wholesale Trade;Wholesale Trade;Mining;Manufacturing;,Turkey,,,1995-06-02,,38.9597594,34.9249653,1311,
46849C,INK,Company,Mining,Mining;Mining;Mining;,Russian Fed,Irkutsk,,,,52.2895979,104.2805843,1311,
72701M,Plan und Bau,Company,"Transportation, Communications, Electric, Gas, And Sanitary Services","Transportation, Communications, Electric, Gas, And Sanitary Services;Transportation, Communications, Electric, Gas, And Sanitary Services;",Austria,,,,,47.2000338,13.199959,4412,
70290N,Pastor Grupa JSC,Company,Manufacturing,Manufacturing;,Croatia,Zagreb,,,,45.8131545,15.9770298,3569,
74060T,Premuda di Societa Navigazione,Company,"Transportation, Communications, Electric, Gas, And Sanitary Services","Transportation, Communications, Electric, Gas, And Sanitary Services;",Italy,Genova,,,,44.40726,8.9338624,4412,
36731X,Gas Plus SpA,Company,"Transportation, Communications, Electric, Gas, And Sanitary Services","Transportation, Communications, Electric, Gas, And Sanitary Services;Transportation, Communications, Electric, Gas, And Sanitary Services;Transportation, Communications, Electric, Gas, And Sanitary Services;Mining;Transportation, Communications, Electric, Gas, And Sanitary Services;Transportation, Communications, Electric, Gas, And Sanitary Services;",Italy,Milan,,,,45.4667971,9.1904984,4925,
06983W,ZAO Bashneft-TNK,Company,Mining,Mining;Mining;Mining;,Russian Fed,,,1994-07-18,,64.6863136,97.7453061,1311,
63039C,Naphtha Israel Petroleum Oil,Company,Mining,Mining;,Israel,Jerusalem,,1990-09-11,,31.7968155,35.2137815559015,1311,
75332L,Rao-Ees,Company,"Transportation, Communications, Electric, Gas, And Sanitary Services","Transportation, Communications, Electric, Gas, And Sanitary Services;",Russian Fed,Moscow,,,,55.7516335,37.6187042,4911,
67015H,Novoship,Company,"Transportation, Communications, Electric, Gas, And Sanitary Services","Transportation, Communications, Electric, Gas, And Sanitary Services;",Russian Fed,Novorossiysk,,,,44.7239578,37.7690711,4412,
48251A,KM Egypt Inc(Kerr-McGee Corp),Company,Mining,Mining;,Egypt,,,1992-02-06,,26.2540493,29.2675469,1311,
96769E,Wiener Stadtwerke Beteilingung,Company,"Transportation, Communications, Electric, Gas, And Sanitary Services","Transportation, Communications, Electric, Gas, And Sanitary Services;Finance, Insurance, And Real Estate;",Austria,Vienna,,,,48.2083537,16.3725042,4931,
28489A,Electric Power Systems(Egypt),Company,"Transportation, Communications, Electric, Gas, And Sanitary Services","Transportation, Communications, Electric, Gas, And Sanitary Services;",Egypt,,,1993-02-20,,26.2540493,29.2675469,4911,
98639H,Atomenergoprom,Company,"Transportation, Communications, Electric, Gas, And Sanitary Services","Manufacturing;Transportation, Communications, Electric, Gas, And Sanitary Services;Construction;Manufacturing;Transportation, Communications, Electric, Gas, And Sanitary Services;Services;Finance, Insurance, And Real Estate;Services;",Russian Fed,Moscow,,,,55.7516335,37.6187042,4911,
45076M,IVPC Energy,Company,"Transportation, Communications, Electric, Gas, And Sanitary Services","Transportation, Communications, Electric, Gas, And Sanitary Services;",Italy,,,,,42.6384261,12.674297,4911,
36766T,GPB Global Resources,Company,Mining,Mining;Mining;Mining;,Russian Fed,,,,,64.6863136,97.7453061,1311,
78824X,Sadra America Latina JSC,Company,Mining,Mining;Mining;Mining;,Iran,,,,,32.9407496,52.9471344,1311,
00115M,Agip SpA(ENI/Italy),Company,Mining,Mining;,Italy,Milano,,1993-01-21,,45.4667971,9.1904984,1311,
00115I,AGIP Overseas Ltd,Company,Mining,Mining;,Italy,,,,,42.6384261,12.674297,1311,
78308A,Minatom,Company,"Transportation, Communications, Electric, Gas, And Sanitary Services","Transportation, Communications, Electric, Gas, And Sanitary Services;",Russian Fed,,,1994-07-29,,64.6863136,97.7453061,4911,
98885T,Zaliv Shipyard(Ukraine),Company,Manufacturing,Manufacturing;,Ukraine,"Kerch, Crimea",,1992-10-22,,45.3534002,36.4538645,3731,
77616T,SNGN Romgaz SA,Company,Mining,Mining;Mining;Mining;,Romania,Medias,,1994-12-12,,46.1649111,24.3511266,1311,
60934Y,Monfrini(Montecatini),Company,Manufacturing,Manufacturing;,Italy,,,1991-03-04,,42.6384261,12.674297,2819,
62918W,NIS ad Novi Sad,Company,Mining,Mining;Mining;Mining;,Serbia,Novi Sad,,1996-06-11,,45.2551053,19.845081,1311,
4A9868,NREA,Company,"Transportation, Communications, Electric, Gas, And Sanitary Services","Transportation, Communications, Electric, Gas, And Sanitary Services;",Egypt,Cairo,,,,30.0488185,31.2436663,4911,
23428L,DEM,Company,"Transportation, Communications, Electric, Gas, And Sanitary Services","Construction;Transportation, Communications, Electric, Gas, And Sanitary Services;",Russian Fed,Khabarovsk,,,,48.481402,135.07694,4911,
92758E,Vinylchloride Concern,Company,Manufacturing,Manufacturing;Manufacturing;,Ukraine,Kalus,,1993-07-27,,49.028894,24.3613198,2819,
88823Y,Tirrenia di Navigazione SpA,Company,"Transportation, Communications, Electric, Gas, And Sanitary Services","Transportation, Communications, Electric, Gas, And Sanitary Services;Transportation, Communications, Electric, Gas, And Sanitary Services;Transportation, Communications, Electric, Gas, And Sanitary Services;",Italy,Neaples,,,,,,4412,
67615M,Verbund AG,Company,"Transportation, Communications, Electric, Gas, And Sanitary Services","Transportation, Communications, Electric, Gas, And Sanitary Services;Finance, Insurance, And Real Estate;Transportation, Communications, Electric, Gas, And Sanitary Services;",Austria,Vienna,,1998-07-29,,48.2083537,16.3725042,4911,
25768C,Donbasenergo,Company,"Transportation, Communications, Electric, Gas, And Sanitary Services","Transportation, Communications, Electric, Gas, And Sanitary Services;",Ukraine,Donetsk,,,,48.0158753,37.8013407,4911,
43972M,Khantymansisk-neftegazgeologiy,Company,Mining,Mining;,Russian Fed,,,,,64.6863136,97.7453061,1311,
73586P,Pro-invest,Company,Services,Services;,Macedonia,,,,,41.6171214,21.7168387,8711,
Petkim_node,Petkim Petrokimya Holding AS,Company,Manufacturing,Manufacturing;Manufacturing;Manufacturing;Manufacturing;Wholesale Trade;Manufacturing;Manufacturing;,Turkey,Izmir,,,,38.4153421,27.144474,2911,
42792P,Hera SpA,Company,"Transportation, Communications, Electric, Gas, And Sanitary Services","Transportation, Communications, Electric, Gas, And Sanitary Services;Transportation, Communications, Electric, Gas, And Sanitary Services;Transportation, Communications, Electric, Gas, And Sanitary Services;Transportation, Communications, Electric, Gas, And Sanitary Services;Public Administration;Transportation, Communications, Electric, Gas, And Sanitary Services;",Italy,Bologna,,,,44.4936714,11.3430347,4939,
89531N,Trevi Group,Company,Services,Services;,Italy,,,,,42.6384261,12.674297,8711,
29182H,En & En,Company,Public Administration,Public Administration;Public Administration;,Italy,,,2007-11-11,,42.6384261,12.674297,9631,
89286H,Tracer Iran Trade & Finance,Company,Mining,Mining;,Iran,,,,,32.9407496,52.9471344,1311,
98840F,Yuganskneftegaz,Company,Mining,Mining;,Russian Fed,West Siberia,,1994-09-22,,55.7587019,37.5864705,1311,
48693R,Kazakhstan Engineering JSC,Company,Services,"Services;Finance, Insurance, And Real Estate;",Kazakhstan,Astana,,,,51.15092055,71.4388595154859,8711,
28232E,Kahromika,Company,Services,Services;,Egypt,Giza,,,,30.0170059,31.2134513,8711,
04961W,SPbAEP,Company,Services,Services;Services;,Russian Fed,Saint Petersburg,,1994-07-29,,59.9393657,30.3153628,8711,
04961H,Atomenergoeksport,Company,"Transportation, Communications, Electric, Gas, And Sanitary Services","Wholesale Trade;Transportation, Communications, Electric, Gas, And Sanitary Services;",Russian Fed,Moscow,,1994-07-29,,55.7516335,37.6187042,4911,
91020F,EES,Company,"Transportation, Communications, Electric, Gas, And Sanitary Services","Transportation, Communications, Electric, Gas, And Sanitary Services;",Russian Fed,,,2001-12-20,,64.6863136,97.7453061,4911,
71665A,PetroHungaria Kft,Company,Mining,Mining;Mining;Mining;,Hungary,Budapest,,2007-09-10,,47.4983815,19.0404707,1382,
91843A,VVNP(Czechoslovakia),Company,Mining,Mining;,Czech Republic,,,,,49.8167003,15.4749544,1311,
53803R,Litwin/ACP,Company,Services,Services;,Kazakhstan,,,1993-03-08,,47.2286086,65.2093197,8711,
58404E,Med Feeder Italia,Company,"Transportation, Communications, Electric, Gas, And Sanitary Services","Transportation, Communications, Electric, Gas, And Sanitary Services;",Italy,,,,,42.6384261,12.674297,4412,
67203F,OOO Yuzhuralneft,Company,Mining,Mining;Mining;Mining;,Russian Fed,Orenburg,,,,51.7674507,55.0971196,1311,
74317R,Proger SpA,Company,Services,Construction;Construction;Construction;Construction;Construction;Services;,Italy,Rome,,,,41.8935085,12.4825526,8711,
29640E,Eser,Company,Mining,Mining;,Turkey,,,1993-11-29,,38.9597594,34.9249653,1311,
670875,OMV AG,Company,Mining,Mining;Mining;Mining;,Austria,Vienna,,1991-12-06,,48.2083537,16.3725042,1311,
2A0818,Moses Ltd,Company,Manufacturing,Manufacturing;Manufacturing;Manufacturing;Manufacturing;,Italy,,,,,42.6384261,12.674297,3824,
67788X,Oil Exploration Co,Company,Mining,Mining;,Iraq,,,,,33.0955793,44.1749775,1382,
29710K,Energy Gostar Co,Company,"Transportation, Communications, Electric, Gas, And Sanitary Services","Transportation, Communications, Electric, Gas, And Sanitary Services;",Iran,,,,,32.9407496,52.9471344,4911,
3A2618,Rosseti PAO,Company,"Transportation, Communications, Electric, Gas, And Sanitary Services","Transportation, Communications, Electric, Gas, And Sanitary Services;Finance, Insurance, And Real Estate;",Russian Fed,Moscow,,,,55.7516335,37.6187042,4911,
90372X,Ukraine Oil International Inc,Company,Mining,Mining;Mining;,Ukraine,Chernigov,,1995-05-12,,51.494099,31.294332,1311,
74442Q,Public Power Corp SA,Company,"Transportation, Communications, Electric, Gas, And Sanitary Services","Transportation, Communications, Electric, Gas, And Sanitary Services;",Greece,Athens,,,,37.9841493,23.7279843,4911,
00090I,ACT Operators,Company,Mining,Mining;,Italy,,,,,42.6384261,12.674297,1311,
29576Y,Etra SpA,Company,"Transportation, Communications, Electric, Gas, And Sanitary Services","Transportation, Communications, Electric, Gas, And Sanitary Services;Transportation, Communications, Electric, Gas, And Sanitary Services;Transportation, Communications, Electric, Gas, And Sanitary Services;",Italy,Bassano Del Grappa (Vi),,,,45.7669109,11.7343469,4939,
59141Y,Metanifera di Gavirate SpA,Company,"Transportation, Communications, Electric, Gas, And Sanitary Services","Transportation, Communications, Electric, Gas, And Sanitary Services;Services;",Italy,Gavirate,,,,45.840076,8.71983,4911,
65486E,Nizhnevolzhskneft,Company,Mining,Mining;,Russian Fed,,,,,64.6863136,97.7453061,1382,
29331I,Enichem Augusta SpA(Enichem),Company,Manufacturing,Manufacturing;Manufacturing;,Italy,Milan,,1992-01-16,,45.4667971,9.1904984,2819,
29331M,Polimeri Europa SpA,Company,Manufacturing,Manufacturing;,Italy,Milan,,,,45.4667971,9.1904984,2819,
38100A,Goldenport Holdings Inc,Company,"Transportation, Communications, Electric, Gas, And Sanitary Services","Transportation, Communications, Electric, Gas, And Sanitary Services;Transportation, Communications, Electric, Gas, And Sanitary Services;",Greece,Athens,,,,37.9841493,23.7279843,4412,
87988V,Telesis Securities SA,Company,"Finance, Insurance, And Real Estate","Finance, Insurance, And Real Estate;",Greece,Athens,,,,37.9841493,23.7279843,6211,
5A8208,Gevasol Engineering Ltd,Company,Services,Wholesale Trade;Services;,Israel,Haifa,,,,32.8191218,34.9983856,8711,
47625H,Israel Land Dvlp Co Energy Ltd,Company,Mining,Mining;Mining;Mining;,Israel,Tel Aviv,,,,32.0804808,34.7805274,1311,
52727P,Leumi & Co,Company,"Finance, Insurance, And Real Estate","Finance, Insurance, And Real Estate;",Israel,Tel Aviv,,,,32.0804808,34.7805274,6211,
50059V,Kopelouzos Group,Company,Mining,Mining;,Russian Fed,,,1995-01-13,,64.6863136,97.7453061,1311,
59120X,Metro Exploration,Company,Mining,Mining;Mining;Mining;,Greece,,,,,39.000041,21.9999569,1311,
29606J,Edasz Rt(Hungary),Company,"Transportation, Communications, Electric, Gas, And Sanitary Services","Transportation, Communications, Electric, Gas, And Sanitary Services;",Hungary,Gyor,,,,47.687609,17.6346815,4911,
29606F,Emasz,Company,"Transportation, Communications, Electric, Gas, And Sanitary Services","Transportation, Communications, Electric, Gas, And Sanitary Services;",Hungary,Miskolc,,1998-12-15,,48.1031517,20.7902158,4911,
48282Q,KELAG Kaerntner Elektrizitaets,Company,"Transportation, Communications, Electric, Gas, And Sanitary Services","Transportation, Communications, Electric, Gas, And Sanitary Services;",Austria,Klagenfurt,,,,46.6228162,14.3079604,4911,
9046RJ,Undisclosed Russian Co,Company,Mining,Mining;,Russian Fed,,,,,64.6863136,97.7453061,1311,
38498V,Elektrik Uretim AS,Company,"Transportation, Communications, Electric, Gas, And Sanitary Services","Transportation, Communications, Electric, Gas, And Sanitary Services;",Turkey,Ankara,,,,39.9220794,32.853758,4911,
26361M,Dublin Intl Petroleum(Egypt),Company,Mining,Mining;Mining;Mining;,Egypt,,,,,26.2540493,29.2675469,1311,
98493L,OAO Yantar'energo,Company,"Transportation, Communications, Electric, Gas, And Sanitary Services","Transportation, Communications, Electric, Gas, And Sanitary Services;",Russian Fed,Kaliningrad,,2001-12-20,,54.7066422,20.5105166,4911,
85731H,State Petroleum Institute for,Company,Mining,Services;Services;Mining;,Azerbaijan,,,1994-06-12,,40.3936294,47.7872508,1311,
03697K,Arabia Inv Dvlp Fin Inv Hldg,Company,"Transportation, Communications, Electric, Gas, And Sanitary Services","Wholesale Trade;Wholesale Trade;Manufacturing;Wholesale Trade;Manufacturing;Finance, Insurance, And Real Estate;Transportation, Communications, Electric, Gas, And Sanitary Services;Finance, Insurance, And Real Estate;Manufacturing;Retail Trade;Services;Finance, Insurance, And Real Estate;Manufacturing;Retail Trade;Mining;Mining;Services;",Egypt,Cairo,,,,30.0488185,31.2436663,4911,
31776A,Finest SpA,Company,"Finance, Insurance, And Real Estate","Finance, Insurance, And Real Estate;",Italy,Podenone,,,,,,6211,
45611W,Intl Aerospace Mgmt co,Company,Services,Manufacturing;Manufacturing;Services;Manufacturing;Manufacturing;Manufacturing;,Italy,,,,,42.6384261,12.674297,8711,
45498E,Iride SpA,Company,"Transportation, Communications, Electric, Gas, And Sanitary Services","Transportation, Communications, Electric, Gas, And Sanitary Services;Transportation, Communications, Electric, Gas, And Sanitary Services;Transportation, Communications, Electric, Gas, And Sanitary Services;Transportation, Communications, Electric, Gas, And Sanitary Services;Transportation, Communications, Electric, Gas, And Sanitary Services;",Italy,Torino,,,,45.0709201,7.685972,4939,
59006N,Merloni Progetti Energia SpA,Company,"Transportation, Communications, Electric, Gas, And Sanitary Services","Transportation, Communications, Electric, Gas, And Sanitary Services;",Italy,,,,,42.6384261,12.674297,4911,
67018Y,Noyabrskneftegaz,Company,Mining,Mining;Mining;Mining;,Russian Fed,,,,,64.6863136,97.7453061,1311,
49735F,KChKhK,Company,Manufacturing,Manufacturing;Manufacturing;Manufacturing;Manufacturing;,Russian Fed,Kirovo-Chepetsk,,,,58.5421963,50.0340889,2819,
74443R,Public Gas Corp SA,Company,"Transportation, Communications, Electric, Gas, And Sanitary Services","Transportation, Communications, Electric, Gas, And Sanitary Services;Transportation, Communications, Electric, Gas, And Sanitary Services;Transportation, Communications, Electric, Gas, And Sanitary Services;Transportation, Communications, Electric, Gas, And Sanitary Services;",Greece,Athens,,2008-01-25,,37.9841493,23.7279843,4922,
46225W,Iouski,Company,Mining,Mining;,Russian Fed,,,,,64.6863136,97.7453061,1311,
04321Y,Arup Srl,Company,Services,Services;Services;Services;,Italy,Milan,,,,45.4667971,9.1904984,8711,
91032Z,ZAO United Financial Group,Company,"Finance, Insurance, And Real Estate","Finance, Insurance, And Real Estate;",Russian Fed,Moscow,,,,55.7516335,37.6187042,6211,
76776A,RITEK,Company,Mining,Mining;Mining;Mining;,Russian Fed,Moscow,,1993-01-31,,55.7516335,37.6187042,1311,
90469F,RAO EES Rossii,Company,"Transportation, Communications, Electric, Gas, And Sanitary Services","Transportation, Communications, Electric, Gas, And Sanitary Services;Transportation, Communications, Electric, Gas, And Sanitary Services;Finance, Insurance, And Real Estate;",Russian Fed,Moscow,,2008-01-29,,55.7516335,37.6187042,4911,
55384Z,Societa per il Mercato dei,Company,"Finance, Insurance, And Real Estate","Finance, Insurance, And Real Estate;",Italy,Rome,,,,41.8935085,12.4825526,6211,
74267A,Privredna Banka Zagreb,Company,"Finance, Insurance, And Real Estate","Finance, Insurance, And Real Estate;Finance, Insurance, And Real Estate;",Croatia,,,,,45.5643442,17.0118954,6211,
44928M,ICI Hungary Ltd,Company,Manufacturing,Manufacturing;Manufacturing;,Hungary,,,,,47.1817585,19.5060937,2819,
28224Q,EFG Hermes Holdings SAE,Company,"Finance, Insurance, And Real Estate","Finance, Insurance, And Real Estate;Finance, Insurance, And Real Estate;",Egypt,6th Of October City,,,,30.0748284,31.2726162,6211,
